{
    "6": {
        "nom": "Adrar",
        "wilaya_id": 1,
        "code_postal": "101"
    },
    "150": {
        "nom": "Akabli",
        "wilaya_id": 1,
        "code_postal": "119"
    },
    "173": {
        "nom": "Aoulef",
        "wilaya_id": 1,
        "code_postal": "112"
    },
    "364": {
        "nom": "Bouda",
        "wilaya_id": 1,
        "code_postal": "122"
    },
    "686": {
        "nom": "Fenoughil",
        "wilaya_id": 1,
        "code_postal": "115"
    },
    "818": {
        "nom": "In Zghmir",
        "wilaya_id": 1,
        "code_postal": "105"
    },
    "1087": {
        "nom": "Ouled Ahmed Timmi",
        "wilaya_id": 1,
        "code_postal": "121"
    },
    "1185": {
        "nom": "Reggane",
        "wilaya_id": 1,
        "code_postal": "104"
    },
    "1208": {
        "nom": "Sali",
        "wilaya_id": 1,
        "code_postal": "118"
    },
    "1211": {
        "nom": "Sebaa",
        "wilaya_id": 1,
        "code_postal": "126"
    },
    "1398": {
        "nom": "Tamantit",
        "wilaya_id": 1,
        "code_postal": "114"
    },
    "1401": {
        "nom": "Tamest",
        "wilaya_id": 1,
        "code_postal": "102"
    },
    "1467": {
        "nom": "Timekten",
        "wilaya_id": 1,
        "code_postal": "113"
    },
    "1484": {
        "nom": "Tit",
        "wilaya_id": 1,
        "code_postal": "106"
    },
    "1503": {
        "nom": "Tsabit",
        "wilaya_id": 1,
        "code_postal": "108"
    },
    "1518": {
        "nom": "Zaouiet Kounta",
        "wilaya_id": 1,
        "code_postal": "111"
    },
    "3": {
        "nom": "Abou El Hassan",
        "wilaya_id": 2,
        "code_postal": "222"
    },
    "87": {
        "nom": "Ain Merane",
        "wilaya_id": 2,
        "code_postal": "232"
    },
    "241": {
        "nom": "Benairia",
        "wilaya_id": 2,
        "code_postal": "203"
    },
    "250": {
        "nom": "Beni Bouattab",
        "wilaya_id": 2,
        "code_postal": "235"
    },
    "260": {
        "nom": "Beni Haoua",
        "wilaya_id": 2,
        "code_postal": "207"
    },
    "278": {
        "nom": "Beni Rached",
        "wilaya_id": 2,
        "code_postal": "213"
    },
    "392": {
        "nom": "Boukadir",
        "wilaya_id": 2,
        "code_postal": "212"
    },
    "421": {
        "nom": "Bouzeghaia",
        "wilaya_id": 2,
        "code_postal": "231"
    },
    "426": {
        "nom": "Breira",
        "wilaya_id": 2,
        "code_postal": "234"
    },
    "463": {
        "nom": "Chettia",
        "wilaya_id": 2,
        "code_postal": "224"
    },
    "469": {
        "nom": "Chlef",
        "wilaya_id": 2,
        "code_postal": "201"
    },
    "479": {
        "nom": "Dahra",
        "wilaya_id": 2,
        "code_postal": "217"
    },
    "603": {
        "nom": "El Hadjadj",
        "wilaya_id": 2,
        "code_postal": "227"
    },
    "623": {
        "nom": "El Karimia",
        "wilaya_id": 2,
        "code_postal": "204"
    },
    "645": {
        "nom": "El Marsa",
        "wilaya_id": 2,
        "code_postal": "223"
    },
    "766": {
        "nom": "Harchoun",
        "wilaya_id": 2,
        "code_postal": "209"
    },
    "791": {
        "nom": "Herenfa",
        "wilaya_id": 2,
        "code_postal": "215"
    },
    "871": {
        "nom": "Labiod Medjadja",
        "wilaya_id": 2,
        "code_postal": "228"
    },
    "1010": {
        "nom": "Moussadek",
        "wilaya_id": 2,
        "code_postal": "226"
    },
    "1057": {
        "nom": "Oued Fodda",
        "wilaya_id": 2,
        "code_postal": "229"
    },
    "1060": {
        "nom": "Oued Goussine",
        "wilaya_id": 2,
        "code_postal": "216"
    },
    "1073": {
        "nom": "Oued Sly",
        "wilaya_id": 2,
        "code_postal": "221"
    },
    "1084": {
        "nom": "Ouled Abbes",
        "wilaya_id": 2,
        "code_postal": "218"
    },
    "1095": {
        "nom": "Ouled Ben Abdelkader",
        "wilaya_id": 2,
        "code_postal": "230"
    },
    "1110": {
        "nom": "Ouled Fares",
        "wilaya_id": 2,
        "code_postal": "210"
    },
    "1150": {
        "nom": "Oum Drou",
        "wilaya_id": 2,
        "code_postal": "233"
    },
    "1232": {
        "nom": "Sendjas",
        "wilaya_id": 2,
        "code_postal": "219"
    },
    "1249": {
        "nom": "Sidi Abderrahmane",
        "wilaya_id": 2,
        "code_postal": "225"
    },
    "1255": {
        "nom": "Sidi Akkacha",
        "wilaya_id": 2,
        "code_postal": "211"
    },
    "1338": {
        "nom": "Sobha",
        "wilaya_id": 2,
        "code_postal": "208"
    },
    "1372": {
        "nom": "Tadjena",
        "wilaya_id": 2,
        "code_postal": "205"
    },
    "1392": {
        "nom": "Talassa",
        "wilaya_id": 2,
        "code_postal": "214"
    },
    "1410": {
        "nom": "Taougrite",
        "wilaya_id": 2,
        "code_postal": "206"
    },
    "1436": {
        "nom": "Tenes",
        "wilaya_id": 2,
        "code_postal": "202"
    },
    "1520": {
        "nom": "Zeboudja",
        "wilaya_id": 2,
        "code_postal": "220"
    },
    "8": {
        "nom": "Aflou",
        "wilaya_id": 3,
        "code_postal": "319"
    },
    "84": {
        "nom": "Ain Mahdi",
        "wilaya_id": 3,
        "code_postal": "307"
    },
    "102": {
        "nom": "Ain Sidi Ali",
        "wilaya_id": 3,
        "code_postal": "311"
    },
    "212": {
        "nom": "Beidha",
        "wilaya_id": 3,
        "code_postal": "312"
    },
    "238": {
        "nom": "Benacer Benchohra",
        "wilaya_id": 3,
        "code_postal": "303"
    },
    "428": {
        "nom": "Brida",
        "wilaya_id": 3,
        "code_postal": "313"
    },
    "566": {
        "nom": "El Assafia",
        "wilaya_id": 3,
        "code_postal": "320"
    },
    "588": {
        "nom": "El Ghicha",
        "wilaya_id": 3,
        "code_postal": "314"
    },
    "611": {
        "nom": "El Haouaita",
        "wilaya_id": 3,
        "code_postal": "323"
    },
    "719": {
        "nom": "Gueltat Sidi Saad",
        "wilaya_id": 3,
        "code_postal": "310"
    },
    "735": {
        "nom": "Hadj Mechri",
        "wilaya_id": 3,
        "code_postal": "315"
    },
    "776": {
        "nom": "Hassi Delaa",
        "wilaya_id": 3,
        "code_postal": "305"
    },
    "786": {
        "nom": "Hassi R'mel",
        "wilaya_id": 3,
        "code_postal": "306"
    },
    "847": {
        "nom": "Kheneg",
        "wilaya_id": 3,
        "code_postal": "309"
    },
    "867": {
        "nom": "Ksar El Hirane",
        "wilaya_id": 3,
        "code_postal": "302"
    },
    "873": {
        "nom": "Laghouat",
        "wilaya_id": 3,
        "code_postal": "301"
    },
    "1065": {
        "nom": "Oued M'zi",
        "wilaya_id": 3,
        "code_postal": "322"
    },
    "1066": {
        "nom": "Oued Morra",
        "wilaya_id": 3,
        "code_postal": "321"
    },
    "1215": {
        "nom": "Sebgag",
        "wilaya_id": 3,
        "code_postal": "316"
    },
    "1278": {
        "nom": "Sidi Bouzid",
        "wilaya_id": 3,
        "code_postal": "324"
    },
    "1309": {
        "nom": "Sidi Makhlouf",
        "wilaya_id": 3,
        "code_postal": "304"
    },
    "1371": {
        "nom": "Tadjemout",
        "wilaya_id": 3,
        "code_postal": "308"
    },
    "1374": {
        "nom": "Tadjrouna",
        "wilaya_id": 3,
        "code_postal": "318"
    },
    "1411": {
        "nom": "Taouiala",
        "wilaya_id": 3,
        "code_postal": "317"
    },
    "23": {
        "nom": "Ain Babouche",
        "wilaya_id": 4,
        "code_postal": "408"
    },
    "24": {
        "nom": "Ain Beida",
        "wilaya_id": 4,
        "code_postal": "402"
    },
    "43": {
        "nom": "Ain Diss",
        "wilaya_id": 4,
        "code_postal": "415"
    },
    "61": {
        "nom": "Ain Fekroune",
        "wilaya_id": 4,
        "code_postal": "425"
    },
    "71": {
        "nom": "Ain Kercha",
        "wilaya_id": 4,
        "code_postal": "412"
    },
    "82": {
        "nom": "Ain M'lila",
        "wilaya_id": 4,
        "code_postal": "403"
    },
    "132": {
        "nom": "Ain Zitoun",
        "wilaya_id": 4,
        "code_postal": "427"
    },
    "211": {
        "nom": "Behir Chergui",
        "wilaya_id": 4,
        "code_postal": "404"
    },
    "299": {
        "nom": "Berriche",
        "wilaya_id": 4,
        "code_postal": "409"
    },
    "308": {
        "nom": "Bir Chouhada",
        "wilaya_id": 4,
        "code_postal": "421"
    },
    "499": {
        "nom": "Dhala",
        "wilaya_id": 4,
        "code_postal": "411"
    },
    "555": {
        "nom": "El Amiria",
        "wilaya_id": 4,
        "code_postal": "405"
    },
    "571": {
        "nom": "El Belala",
        "wilaya_id": 4,
        "code_postal": "407"
    },
    "580": {
        "nom": "El Djazia",
        "wilaya_id": 4,
        "code_postal": "414"
    },
    "583": {
        "nom": "El Fedjoudj Boughrara Sa",
        "wilaya_id": 4,
        "code_postal": "419"
    },
    "613": {
        "nom": "El Harmilia",
        "wilaya_id": 4,
        "code_postal": "429"
    },
    "693": {
        "nom": "Fkirina",
        "wilaya_id": 4,
        "code_postal": "416"
    },
    "760": {
        "nom": "Hanchir Toumghani",
        "wilaya_id": 4,
        "code_postal": "413"
    },
    "869": {
        "nom": "Ksar Sbahi",
        "wilaya_id": 4,
        "code_postal": "422"
    },
    "977": {
        "nom": "Meskiana",
        "wilaya_id": 4,
        "code_postal": "424"
    },
    "1067": {
        "nom": "Oued Nini",
        "wilaya_id": 4,
        "code_postal": "423"
    },
    "1112": {
        "nom": "Ouled Gacem",
        "wilaya_id": 4,
        "code_postal": "428"
    },
    "1114": {
        "nom": "Ouled Hamla",
        "wilaya_id": 4,
        "code_postal": "410"
    },
    "1146": {
        "nom": "Ouled Zouai",
        "wilaya_id": 4,
        "code_postal": "420"
    },
    "1153": {
        "nom": "Oum El Bouaghi",
        "wilaya_id": 4,
        "code_postal": "401"
    },
    "1168": {
        "nom": "Rahia",
        "wilaya_id": 4,
        "code_postal": "426"
    },
    "1333": {
        "nom": "Sigus",
        "wilaya_id": 4,
        "code_postal": "406"
    },
    "1355": {
        "nom": "Souk Naamane",
        "wilaya_id": 4,
        "code_postal": "417"
    },
    "1539": {
        "nom": "Zorg",
        "wilaya_id": 4,
        "code_postal": "418"
    },
    "44": {
        "nom": "Ain Djasser",
        "wilaya_id": 5,
        "code_postal": "519"
    },
    "122": {
        "nom": "Ain Touta",
        "wilaya_id": 5,
        "code_postal": "545"
    },
    "125": {
        "nom": "Ain Yagout",
        "wilaya_id": 5,
        "code_postal": "522"
    },
    "176": {
        "nom": "Arris",
        "wilaya_id": 5,
        "code_postal": "516"
    },
    "185": {
        "nom": "Azil Abedelkader",
        "wilaya_id": 5,
        "code_postal": "515"
    },
    "203": {
        "nom": "Barika",
        "wilaya_id": 5,
        "code_postal": "542"
    },
    "205": {
        "nom": "Batna",
        "wilaya_id": 5,
        "code_postal": "501"
    },
    "258": {
        "nom": "Beni Foudhala El Hakania",
        "wilaya_id": 5,
        "code_postal": "532"
    },
    "325": {
        "nom": "Bitam",
        "wilaya_id": 5,
        "code_postal": "514"
    },
    "399": {
        "nom": "Boulhilat",
        "wilaya_id": 5,
        "code_postal": "560"
    },
    "400": {
        "nom": "Boumagueur",
        "wilaya_id": 5,
        "code_postal": "541"
    },
    "403": {
        "nom": "Boumia",
        "wilaya_id": 5,
        "code_postal": "559"
    },
    "424": {
        "nom": "Bouzina",
        "wilaya_id": 5,
        "code_postal": "535"
    },
    "451": {
        "nom": "Chemora",
        "wilaya_id": 5,
        "code_postal": "536"
    },
    "468": {
        "nom": "Chir",
        "wilaya_id": 5,
        "code_postal": "552"
    },
    "525": {
        "nom": "Djerma",
        "wilaya_id": 5,
        "code_postal": "513"
    },
    "526": {
        "nom": "Djezzar",
        "wilaya_id": 5,
        "code_postal": "543"
    },
    "616": {
        "nom": "El Hassi",
        "wilaya_id": 5,
        "code_postal": "557"
    },
    "637": {
        "nom": "El Madher",
        "wilaya_id": 5,
        "code_postal": "507"
    },
    "691": {
        "nom": "Fesdis",
        "wilaya_id": 5,
        "code_postal": "523"
    },
    "698": {
        "nom": "Foum Toub",
        "wilaya_id": 5,
        "code_postal": "531"
    },
    "706": {
        "nom": "Ghassira",
        "wilaya_id": 5,
        "code_postal": "502"
    },
    "712": {
        "nom": "Gosbat",
        "wilaya_id": 5,
        "code_postal": "539"
    },
    "729": {
        "nom": "Guigba",
        "wilaya_id": 5,
        "code_postal": "510"
    },
    "793": {
        "nom": "Hidoussa",
        "wilaya_id": 5,
        "code_postal": "546"
    },
    "801": {
        "nom": "Ichmoul",
        "wilaya_id": 5,
        "code_postal": "530"
    },
    "819": {
        "nom": "Inoughissen",
        "wilaya_id": 5,
        "code_postal": "511"
    },
    "856": {
        "nom": "Kimmel",
        "wilaya_id": 5,
        "code_postal": "517"
    },
    "863": {
        "nom": "Ksar Bellezma",
        "wilaya_id": 5,
        "code_postal": "528"
    },
    "879": {
        "nom": "Larbaa",
        "wilaya_id": 5,
        "code_postal": "561"
    },
    "888": {
        "nom": "Lazrou",
        "wilaya_id": 5,
        "code_postal": "558"
    },
    "891": {
        "nom": "Lemsane",
        "wilaya_id": 5,
        "code_postal": "527"
    },
    "896": {
        "nom": "M Doukal",
        "wilaya_id": 5,
        "code_postal": "555"
    },
    "911": {
        "nom": "Maafa",
        "wilaya_id": 5,
        "code_postal": "503"
    },
    "966": {
        "nom": "Menaa",
        "wilaya_id": 5,
        "code_postal": "506"
    },
    "975": {
        "nom": "Merouana",
        "wilaya_id": 5,
        "code_postal": "504"
    },
    "1014": {
        "nom": "N Gaous",
        "wilaya_id": 5,
        "code_postal": "509"
    },
    "1040": {
        "nom": "Oued Chaaba",
        "wilaya_id": 5,
        "code_postal": "537"
    },
    "1054": {
        "nom": "Oued El Ma",
        "wilaya_id": 5,
        "code_postal": "533"
    },
    "1075": {
        "nom": "Oued Taga",
        "wilaya_id": 5,
        "code_postal": "548"
    },
    "1091": {
        "nom": "Ouled Ammar",
        "wilaya_id": 5,
        "code_postal": "556"
    },
    "1093": {
        "nom": "Ouled Aouf",
        "wilaya_id": 5,
        "code_postal": "540"
    },
    "1109": {
        "nom": "Ouled Fadel",
        "wilaya_id": 5,
        "code_postal": "549"
    },
    "1135": {
        "nom": "Ouled Sellem",
        "wilaya_id": 5,
        "code_postal": "520"
    },
    "1137": {
        "nom": "Ouled Si Slimane",
        "wilaya_id": 5,
        "code_postal": "553"
    },
    "1161": {
        "nom": "Ouyoun El Assafir",
        "wilaya_id": 5,
        "code_postal": "512"
    },
    "1167": {
        "nom": "Rahbat",
        "wilaya_id": 5,
        "code_postal": "525"
    },
    "1178": {
        "nom": "Ras El Aioun",
        "wilaya_id": 5,
        "code_postal": "551"
    },
    "1223": {
        "nom": "Sefiane",
        "wilaya_id": 5,
        "code_postal": "524"
    },
    "1224": {
        "nom": "Seggana",
        "wilaya_id": 5,
        "code_postal": "529"
    },
    "1236": {
        "nom": "Seriana",
        "wilaya_id": 5,
        "code_postal": "505"
    },
    "1365": {
        "nom": "T Kout",
        "wilaya_id": 5,
        "code_postal": "544"
    },
    "1394": {
        "nom": "Talkhamt",
        "wilaya_id": 5,
        "code_postal": "534"
    },
    "1421": {
        "nom": "Taxlent",
        "wilaya_id": 5,
        "code_postal": "538"
    },
    "1425": {
        "nom": "Tazoult",
        "wilaya_id": 5,
        "code_postal": "508"
    },
    "1437": {
        "nom": "Teniet El Abed",
        "wilaya_id": 5,
        "code_postal": "547"
    },
    "1461": {
        "nom": "Tighanimine",
        "wilaya_id": 5,
        "code_postal": "526"
    },
    "1462": {
        "nom": "Tigharghar",
        "wilaya_id": 5,
        "code_postal": "521"
    },
    "1465": {
        "nom": "Tilatou",
        "wilaya_id": 5,
        "code_postal": "518"
    },
    "1470": {
        "nom": "Timgad",
        "wilaya_id": 5,
        "code_postal": "550"
    },
    "1516": {
        "nom": "Zanet El Beida",
        "wilaya_id": 5,
        "code_postal": "554"
    },
    "5": {
        "nom": "Adekar",
        "wilaya_id": 6,
        "code_postal": "624"
    },
    "144": {
        "nom": "Ait R'zine",
        "wilaya_id": 6,
        "code_postal": "628"
    },
    "145": {
        "nom": "Ait Smail",
        "wilaya_id": 6,
        "code_postal": "647"
    },
    "152": {
        "nom": "Akbou",
        "wilaya_id": 6,
        "code_postal": "625"
    },
    "154": {
        "nom": "Akfadou",
        "wilaya_id": 6,
        "code_postal": "642"
    },
    "157": {
        "nom": "Amalou",
        "wilaya_id": 6,
        "code_postal": "616"
    },
    "161": {
        "nom": "Amizour",
        "wilaya_id": 6,
        "code_postal": "602"
    },
    "168": {
        "nom": "Aokas",
        "wilaya_id": 6,
        "code_postal": "622"
    },
    "201": {
        "nom": "Barbacha",
        "wilaya_id": 6,
        "code_postal": "634"
    },
    "214": {
        "nom": "Bejaia",
        "wilaya_id": 6,
        "code_postal": "601"
    },
    "254": {
        "nom": "Beni Dejllil",
        "wilaya_id": 6,
        "code_postal": "623"
    },
    "263": {
        "nom": "Beni K'sila",
        "wilaya_id": 6,
        "code_postal": "635"
    },
    "266": {
        "nom": "Beni Mallikeche",
        "wilaya_id": 6,
        "code_postal": "638"
    },
    "290": {
        "nom": "Benimaouche",
        "wilaya_id": 6,
        "code_postal": "650"
    },
    "367": {
        "nom": "Boudjellil",
        "wilaya_id": 6,
        "code_postal": "652"
    },
    "383": {
        "nom": "Bouhamza",
        "wilaya_id": 6,
        "code_postal": "637"
    },
    "396": {
        "nom": "Boukhelifa",
        "wilaya_id": 6,
        "code_postal": "648"
    },
    "449": {
        "nom": "Chellata",
        "wilaya_id": 6,
        "code_postal": "605"
    },
    "450": {
        "nom": "Chemini",
        "wilaya_id": 6,
        "code_postal": "629"
    },
    "486": {
        "nom": "Darghina",
        "wilaya_id": 6,
        "code_postal": "620"
    },
    "538": {
        "nom": "Dra El Caid",
        "wilaya_id": 6,
        "code_postal": "645"
    },
    "633": {
        "nom": "El Kseur",
        "wilaya_id": 6,
        "code_postal": "640"
    },
    "685": {
        "nom": "Fenaia Il Maten",
        "wilaya_id": 6,
        "code_postal": "618"
    },
    "687": {
        "nom": "Feraoun",
        "wilaya_id": 6,
        "code_postal": "603"
    },
    "807": {
        "nom": "Ighil Ali",
        "wilaya_id": 6,
        "code_postal": "617"
    },
    "808": {
        "nom": "Ighram",
        "wilaya_id": 6,
        "code_postal": "615"
    },
    "831": {
        "nom": "Kendira",
        "wilaya_id": 6,
        "code_postal": "613"
    },
    "850": {
        "nom": "Kherrata",
        "wilaya_id": 6,
        "code_postal": "644"
    },
    "889": {
        "nom": "Leflaye",
        "wilaya_id": 6,
        "code_postal": "643"
    },
    "901": {
        "nom": "M'cisna",
        "wilaya_id": 6,
        "code_postal": "609"
    },
    "964": {
        "nom": "Melbou",
        "wilaya_id": 6,
        "code_postal": "641"
    },
    "1059": {
        "nom": "Oued Ghir",
        "wilaya_id": 6,
        "code_postal": "651"
    },
    "1162": {
        "nom": "Ouzellaguene",
        "wilaya_id": 6,
        "code_postal": "636"
    },
    "1219": {
        "nom": "Seddouk",
        "wilaya_id": 6,
        "code_postal": "626"
    },
    "1253": {
        "nom": "Sidi Aich",
        "wilaya_id": 6,
        "code_postal": "639"
    },
    "1267": {
        "nom": "Sidi Ayad",
        "wilaya_id": 6,
        "code_postal": "621"
    },
    "1337": {
        "nom": "Smaoun",
        "wilaya_id": 6,
        "code_postal": "612"
    },
    "1353": {
        "nom": "Souk El Tenine",
        "wilaya_id": 6,
        "code_postal": "608"
    },
    "1356": {
        "nom": "Souk Oufella",
        "wilaya_id": 6,
        "code_postal": "630"
    },
    "1390": {
        "nom": "Tala Hamza",
        "wilaya_id": 6,
        "code_postal": "633"
    },
    "1403": {
        "nom": "Tamokra",
        "wilaya_id": 6,
        "code_postal": "606"
    },
    "1404": {
        "nom": "Tamridjet",
        "wilaya_id": 6,
        "code_postal": "646"
    },
    "1415": {
        "nom": "Taourit Ighil",
        "wilaya_id": 6,
        "code_postal": "604"
    },
    "1419": {
        "nom": "Taskriout",
        "wilaya_id": 6,
        "code_postal": "631"
    },
    "1424": {
        "nom": "Tazmalt",
        "wilaya_id": 6,
        "code_postal": "627"
    },
    "1453": {
        "nom": "Tibane",
        "wilaya_id": 6,
        "code_postal": "632"
    },
    "1456": {
        "nom": "Tichy",
        "wilaya_id": 6,
        "code_postal": "611"
    },
    "1460": {
        "nom": "Tifra",
        "wilaya_id": 6,
        "code_postal": "614"
    },
    "1468": {
        "nom": "Timezrit",
        "wilaya_id": 6,
        "code_postal": "607"
    },
    "1477": {
        "nom": "Tinebdar",
        "wilaya_id": 6,
        "code_postal": "610"
    },
    "1489": {
        "nom": "Tizi N'berber",
        "wilaya_id": 6,
        "code_postal": "649"
    },
    "1497": {
        "nom": "Toudja",
        "wilaya_id": 6,
        "code_postal": "619"
    },
    "88": {
        "nom": "Ain Naga",
        "wilaya_id": 7,
        "code_postal": "714"
    },
    "127": {
        "nom": "Ain Zaatout",
        "wilaya_id": 7,
        "code_postal": "718"
    },
    "324": {
        "nom": "Biskra",
        "wilaya_id": 7,
        "code_postal": "701"
    },
    "332": {
        "nom": "Bordj Ben Azzouz",
        "wilaya_id": 7,
        "code_postal": "727"
    },
    "360": {
        "nom": "Bouchagroun",
        "wilaya_id": 7,
        "code_postal": "729"
    },
    "425": {
        "nom": "Branis",
        "wilaya_id": 7,
        "code_postal": "703"
    },
    "460": {
        "nom": "Chetma",
        "wilaya_id": 7,
        "code_postal": "704"
    },
    "521": {
        "nom": "Djemorah",
        "wilaya_id": 7,
        "code_postal": "720"
    },
    "585": {
        "nom": "El Feidh",
        "wilaya_id": 7,
        "code_postal": "716"
    },
    "590": {
        "nom": "El Ghrous",
        "wilaya_id": 7,
        "code_postal": "731"
    },
    "602": {
        "nom": "El Hadjab",
        "wilaya_id": 7,
        "code_postal": "732"
    },
    "612": {
        "nom": "El Haouch",
        "wilaya_id": 7,
        "code_postal": "713"
    },
    "622": {
        "nom": "El Kantara",
        "wilaya_id": 7,
        "code_postal": "717"
    },
    "670": {
        "nom": "El Outaya",
        "wilaya_id": 7,
        "code_postal": "719"
    },
    "696": {
        "nom": "Foughala",
        "wilaya_id": 7,
        "code_postal": "726"
    },
    "848": {
        "nom": "Khenguet Sidi Nadji",
        "wilaya_id": 7,
        "code_postal": "733"
    },
    "893": {
        "nom": "Lichana",
        "wilaya_id": 7,
        "code_postal": "723"
    },
    "894": {
        "nom": "Lioua",
        "wilaya_id": 7,
        "code_postal": "722"
    },
    "898": {
        "nom": "M'chouneche",
        "wilaya_id": 7,
        "code_postal": "712"
    },
    "904": {
        "nom": "M'lili",
        "wilaya_id": 7,
        "code_postal": "725"
    },
    "960": {
        "nom": "Mekhadma",
        "wilaya_id": 7,
        "code_postal": "730"
    },
    "988": {
        "nom": "Meziraa",
        "wilaya_id": 7,
        "code_postal": "728"
    },
    "1158": {
        "nom": "Oumache",
        "wilaya_id": 7,
        "code_postal": "702"
    },
    "1159": {
        "nom": "Ourlal",
        "wilaya_id": 7,
        "code_postal": "724"
    },
    "1317": {
        "nom": "Sidi Okba",
        "wilaya_id": 7,
        "code_postal": "711"
    },
    "1495": {
        "nom": "Tolga",
        "wilaya_id": 7,
        "code_postal": "721"
    },
    "1531": {
        "nom": "Zeribet El Oued",
        "wilaya_id": 7,
        "code_postal": "715"
    },
    "0": {
        "nom": "Abadla",
        "wilaya_id": 8,
        "code_postal": "817"
    },
    "208": {
        "nom": "Bechar",
        "wilaya_id": 8,
        "code_postal": "801"
    },
    "276": {
        "nom": "Beni Ounif",
        "wilaya_id": 8,
        "code_postal": "821"
    },
    "393": {
        "nom": "Boukais",
        "wilaya_id": 8,
        "code_postal": "815"
    },
    "677": {
        "nom": "Erg Ferradj",
        "wilaya_id": 8,
        "code_postal": "802"
    },
    "830": {
        "nom": "Kenadsa",
        "wilaya_id": 8,
        "code_postal": "810"
    },
    "875": {
        "nom": "Lahmar",
        "wilaya_id": 8,
        "code_postal": "806"
    },
    "944": {
        "nom": "Mechraa H.boumediene",
        "wilaya_id": 8,
        "code_postal": "809"
    },
    "973": {
        "nom": "Meridja",
        "wilaya_id": 8,
        "code_postal": "804"
    },
    "998": {
        "nom": "Mogheul",
        "wilaya_id": 8,
        "code_postal": "816"
    },
    "1382": {
        "nom": "Taghit",
        "wilaya_id": 8,
        "code_postal": "813"
    },
    "97": {
        "nom": "Ain Romana",
        "wilaya_id": 9,
        "code_postal": "924"
    },
    "267": {
        "nom": "Beni Mered",
        "wilaya_id": 9,
        "code_postal": "921"
    },
    "283": {
        "nom": "Beni Tamou",
        "wilaya_id": 9,
        "code_postal": "919"
    },
    "291": {
        "nom": "Benkhelil",
        "wilaya_id": 9,
        "code_postal": "910"
    },
    "326": {
        "nom": "Blida",
        "wilaya_id": 9,
        "code_postal": "901"
    },
    "358": {
        "nom": "Bouarfa",
        "wilaya_id": 9,
        "code_postal": "920"
    },
    "372": {
        "nom": "Boufarik",
        "wilaya_id": 9,
        "code_postal": "916"
    },
    "375": {
        "nom": "Bougara",
        "wilaya_id": 9,
        "code_postal": "922"
    },
    "389": {
        "nom": "Bouinan",
        "wilaya_id": 9,
        "code_postal": "903"
    },
    "439": {
        "nom": "Chebli",
        "wilaya_id": 9,
        "code_postal": "902"
    },
    "465": {
        "nom": "Chiffa",
        "wilaya_id": 9,
        "code_postal": "908"
    },
    "472": {
        "nom": "Chrea",
        "wilaya_id": 9,
        "code_postal": "906"
    },
    "508": {
        "nom": "Djebabra",
        "wilaya_id": 9,
        "code_postal": "925"
    },
    "552": {
        "nom": "El Affroun",
        "wilaya_id": 9,
        "code_postal": "907"
    },
    "724": {
        "nom": "Guerrouaou",
        "wilaya_id": 9,
        "code_postal": "923"
    },
    "753": {
        "nom": "Hammam Melouane",
        "wilaya_id": 9,
        "code_postal": "909"
    },
    "880": {
        "nom": "Larbaa",
        "wilaya_id": 9,
        "code_postal": "917"
    },
    "956": {
        "nom": "Meftah",
        "wilaya_id": 9,
        "code_postal": "914"
    },
    "1011": {
        "nom": "Mouzaia",
        "wilaya_id": 9,
        "code_postal": "912"
    },
    "1045": {
        "nom": "Oued Djer",
        "wilaya_id": 9,
        "code_postal": "918"
    },
    "1048": {
        "nom": "Oued El Alleug",
        "wilaya_id": 9,
        "code_postal": "904"
    },
    "1141": {
        "nom": "Ouled Slama",
        "wilaya_id": 9,
        "code_postal": "915"
    },
    "1145": {
        "nom": "Ouled Yaich",
        "wilaya_id": 9,
        "code_postal": "905"
    },
    "1347": {
        "nom": "Souhane",
        "wilaya_id": 9,
        "code_postal": "913"
    },
    "1358": {
        "nom": "Souma",
        "wilaya_id": 9,
        "code_postal": "911"
    },
    "10": {
        "nom": "Aghbalou",
        "wilaya_id": 10,
        "code_postal": "1027"
    },
    "14": {
        "nom": "Ahl El Ksar",
        "wilaya_id": 10,
        "code_postal": "1022"
    },
    "32": {
        "nom": "Ain Bessem",
        "wilaya_id": 10,
        "code_postal": "1035"
    },
    "49": {
        "nom": "Ain El Hadjar",
        "wilaya_id": 10,
        "code_postal": "1025"
    },
    "78": {
        "nom": "Ain Laloui",
        "wilaya_id": 10,
        "code_postal": "1041"
    },
    "123": {
        "nom": "Ain Turk",
        "wilaya_id": 10,
        "code_postal": "1029"
    },
    "140": {
        "nom": "Ait Laaziz",
        "wilaya_id": 10,
        "code_postal": "1008"
    },
    "169": {
        "nom": "Aomar",
        "wilaya_id": 10,
        "code_postal": "1016"
    },
    "209": {
        "nom": "Bechloul",
        "wilaya_id": 10,
        "code_postal": "1033"
    },
    "315": {
        "nom": "Bir Ghbalou",
        "wilaya_id": 10,
        "code_postal": "1036"
    },
    "342": {
        "nom": "Bordj Okhriss",
        "wilaya_id": 10,
        "code_postal": "1018"
    },
    "365": {
        "nom": "Bouderbala",
        "wilaya_id": 10,
        "code_postal": "1023"
    },
    "390": {
        "nom": "Bouira",
        "wilaya_id": 10,
        "code_postal": "1001"
    },
    "397": {
        "nom": "Boukram",
        "wilaya_id": 10,
        "code_postal": "1034"
    },
    "470": {
        "nom": "Chorfa",
        "wilaya_id": 10,
        "code_postal": "1017"
    },
    "489": {
        "nom": "Dechmia",
        "wilaya_id": 10,
        "code_postal": "1031"
    },
    "503": {
        "nom": "Dirah",
        "wilaya_id": 10,
        "code_postal": "1007"
    },
    "509": {
        "nom": "Djebahia",
        "wilaya_id": 10,
        "code_postal": "1026"
    },
    "551": {
        "nom": "El Adjiba",
        "wilaya_id": 10,
        "code_postal": "1019"
    },
    "565": {
        "nom": "El Asnam",
        "wilaya_id": 10,
        "code_postal": "1002"
    },
    "600": {
        "nom": "El Hachimia",
        "wilaya_id": 10,
        "code_postal": "1015"
    },
    "606": {
        "nom": "El Hakimia",
        "wilaya_id": 10,
        "code_postal": "1020"
    },
    "627": {
        "nom": "El Khabouzia",
        "wilaya_id": 10,
        "code_postal": "1021"
    },
    "657": {
        "nom": "El Mokrani",
        "wilaya_id": 10,
        "code_postal": "1044"
    },
    "725": {
        "nom": "Guerrouma",
        "wilaya_id": 10,
        "code_postal": "1003"
    },
    "737": {
        "nom": "Hadjera Zerga",
        "wilaya_id": 10,
        "code_postal": "1042"
    },
    "740": {
        "nom": "Haizer",
        "wilaya_id": 10,
        "code_postal": "1012"
    },
    "762": {
        "nom": "Hanif",
        "wilaya_id": 10,
        "code_postal": "1006"
    },
    "823": {
        "nom": "Kadiria",
        "wilaya_id": 10,
        "code_postal": "1005"
    },
    "876": {
        "nom": "Lakhdaria",
        "wilaya_id": 10,
        "code_postal": "1013"
    },
    "895": {
        "nom": "M Chedallah",
        "wilaya_id": 10,
        "code_postal": "1037"
    },
    "912": {
        "nom": "Maala",
        "wilaya_id": 10,
        "code_postal": "1014"
    },
    "929": {
        "nom": "Mamora",
        "wilaya_id": 10,
        "code_postal": "1039"
    },
    "986": {
        "nom": "Mezdour",
        "wilaya_id": 10,
        "code_postal": "1011"
    },
    "1051": {
        "nom": "Oued El Berdi",
        "wilaya_id": 10,
        "code_postal": "1045"
    },
    "1129": {
        "nom": "Ouled Rached",
        "wilaya_id": 10,
        "code_postal": "1040"
    },
    "1175": {
        "nom": "Raouraoua",
        "wilaya_id": 10,
        "code_postal": "1010"
    },
    "1191": {
        "nom": "Ridane",
        "wilaya_id": 10,
        "code_postal": "1032"
    },
    "1204": {
        "nom": "Saharidj",
        "wilaya_id": 10,
        "code_postal": "1030"
    },
    "1352": {
        "nom": "Souk El Khemis",
        "wilaya_id": 10,
        "code_postal": "1004"
    },
    "1360": {
        "nom": "Sour El Ghozlane",
        "wilaya_id": 10,
        "code_postal": "1038"
    },
    "1383": {
        "nom": "Taghzout",
        "wilaya_id": 10,
        "code_postal": "1009"
    },
    "1386": {
        "nom": "Taguedite",
        "wilaya_id": 10,
        "code_postal": "1028"
    },
    "1414": {
        "nom": "Taourirt",
        "wilaya_id": 10,
        "code_postal": "1043"
    },
    "1511": {
        "nom": "Z'barbar",
        "wilaya_id": 10,
        "code_postal": "1024"
    },
    "1": {
        "nom": "Abalessa",
        "wilaya_id": 11,
        "code_postal": "1102"
    },
    "20": {
        "nom": "Ain Amguel",
        "wilaya_id": 11,
        "code_postal": "1109"
    },
    "803": {
        "nom": "Idles",
        "wilaya_id": 11,
        "code_postal": "1105"
    },
    "1397": {
        "nom": "Tamanrasset",
        "wilaya_id": 11,
        "code_postal": "1101"
    },
    "1426": {
        "nom": "Tazrouk",
        "wilaya_id": 11,
        "code_postal": "1106"
    },
    "131": {
        "nom": "Ain Zerga",
        "wilaya_id": 12,
        "code_postal": "1223"
    },
    "210": {
        "nom": "Bedjene",
        "wilaya_id": 12,
        "code_postal": "1226"
    },
    "215": {
        "nom": "Bekkaria",
        "wilaya_id": 12,
        "code_postal": "1217"
    },
    "309": {
        "nom": "Bir Dheheb",
        "wilaya_id": 12,
        "code_postal": "1214"
    },
    "311": {
        "nom": "Bir El Ater",
        "wilaya_id": 12,
        "code_postal": "1202"
    },
    "318": {
        "nom": "Bir Mokkadem",
        "wilaya_id": 12,
        "code_postal": "1210"
    },
    "394": {
        "nom": "Boukhadra",
        "wilaya_id": 12,
        "code_postal": "1218"
    },
    "398": {
        "nom": "Boulhaf Dyr",
        "wilaya_id": 12,
        "code_postal": "1225"
    },
    "458": {
        "nom": "Cheria",
        "wilaya_id": 12,
        "code_postal": "1203"
    },
    "562": {
        "nom": "El Aouinet",
        "wilaya_id": 12,
        "code_postal": "1205"
    },
    "619": {
        "nom": "El Houidjbet",
        "wilaya_id": 12,
        "code_postal": "1206"
    },
    "632": {
        "nom": "El Kouif",
        "wilaya_id": 12,
        "code_postal": "1211"
    },
    "642": {
        "nom": "El Malabiod",
        "wilaya_id": 12,
        "code_postal": "1220"
    },
    "652": {
        "nom": "El Meridj",
        "wilaya_id": 12,
        "code_postal": "1224"
    },
    "655": {
        "nom": "El Mezeraa",
        "wilaya_id": 12,
        "code_postal": "1227"
    },
    "659": {
        "nom": "El Ogla",
        "wilaya_id": 12,
        "code_postal": "1213"
    },
    "661": {
        "nom": "El Ogla El Malha",
        "wilaya_id": 12,
        "code_postal": "1215"
    },
    "689": {
        "nom": "Ferkane",
        "wilaya_id": 12,
        "code_postal": "1228"
    },
    "730": {
        "nom": "Guorriguer",
        "wilaya_id": 12,
        "code_postal": "1216"
    },
    "756": {
        "nom": "Hammamet",
        "wilaya_id": 12,
        "code_postal": "1208"
    },
    "1004": {
        "nom": "Morssot",
        "wilaya_id": 12,
        "code_postal": "1212"
    },
    "1024": {
        "nom": "Negrine",
        "wilaya_id": 12,
        "code_postal": "1209"
    },
    "1082": {
        "nom": "Ouenza",
        "wilaya_id": 12,
        "code_postal": "1219"
    },
    "1149": {
        "nom": "Oum Ali",
        "wilaya_id": 12,
        "code_postal": "1221"
    },
    "1201": {
        "nom": "Saf Saf El Ouesra",
        "wilaya_id": 12,
        "code_postal": "1207"
    },
    "1361": {
        "nom": "Stah Guentis",
        "wilaya_id": 12,
        "code_postal": "1204"
    },
    "1428": {
        "nom": "Tebessa",
        "wilaya_id": 12,
        "code_postal": "1201"
    },
    "1432": {
        "nom": "Telidjen",
        "wilaya_id": 12,
        "code_postal": "1222"
    },
    "63": {
        "nom": "Ain Fettah",
        "wilaya_id": 13,
        "code_postal": "1331"
    },
    "64": {
        "nom": "Ain Fezza",
        "wilaya_id": 13,
        "code_postal": "1312"
    },
    "66": {
        "nom": "Ain Ghoraba",
        "wilaya_id": 13,
        "code_postal": "1349"
    },
    "69": {
        "nom": "Ain Kebira",
        "wilaya_id": 13,
        "code_postal": "1353"
    },
    "89": {
        "nom": "Ain Nehala",
        "wilaya_id": 13,
        "code_postal": "1325"
    },
    "110": {
        "nom": "Ain Tallout",
        "wilaya_id": 13,
        "code_postal": "1303"
    },
    "126": {
        "nom": "Ain Youcef",
        "wilaya_id": 13,
        "code_postal": "1315"
    },
    "159": {
        "nom": "Amieur",
        "wilaya_id": 13,
        "code_postal": "1314"
    },
    "182": {
        "nom": "Azails",
        "wilaya_id": 13,
        "code_postal": "1321"
    },
    "189": {
        "nom": "Bab El Assa",
        "wilaya_id": 13,
        "code_postal": "1318"
    },
    "248": {
        "nom": "Beni Bahdel",
        "wilaya_id": 13,
        "code_postal": "1342"
    },
    "251": {
        "nom": "Beni Boussaid",
        "wilaya_id": 13,
        "code_postal": "1338"
    },
    "264": {
        "nom": "Beni Khaled",
        "wilaya_id": 13,
        "code_postal": "1348"
    },
    "269": {
        "nom": "Beni Mester",
        "wilaya_id": 13,
        "code_postal": "1302"
    },
    "273": {
        "nom": "Beni Ouarsous",
        "wilaya_id": 13,
        "code_postal": "1336"
    },
    "281": {
        "nom": "Beni Smiel",
        "wilaya_id": 13,
        "code_postal": "1352"
    },
    "282": {
        "nom": "Beni Snous",
        "wilaya_id": 13,
        "code_postal": "1317"
    },
    "292": {
        "nom": "Bensekrane",
        "wilaya_id": 13,
        "code_postal": "1324"
    },
    "386": {
        "nom": "Bouhlou",
        "wilaya_id": 13,
        "code_postal": "1347"
    },
    "388": {
        "nom": "Bouihi",
        "wilaya_id": 13,
        "code_postal": "1343"
    },
    "461": {
        "nom": "Chetouane",
        "wilaya_id": 13,
        "code_postal": "1350"
    },
    "485": {
        "nom": "Dar Yaghmouracene",
        "wilaya_id": 13,
        "code_postal": "1319"
    },
    "510": {
        "nom": "Djebala",
        "wilaya_id": 13,
        "code_postal": "1309"
    },
    "563": {
        "nom": "El Aricha",
        "wilaya_id": 13,
        "code_postal": "1332"
    },
    "584": {
        "nom": "El Fehoul",
        "wilaya_id": 13,
        "code_postal": "1305"
    },
    "591": {
        "nom": "El Gor",
        "wilaya_id": 13,
        "code_postal": "1310"
    },
    "684": {
        "nom": "Fellaoucene",
        "wilaya_id": 13,
        "code_postal": "1320"
    },
    "708": {
        "nom": "Ghazaouet",
        "wilaya_id": 13,
        "code_postal": "1307"
    },
    "749": {
        "nom": "Hammam Boughrara",
        "wilaya_id": 13,
        "code_postal": "1328"
    },
    "790": {
        "nom": "Hennaya",
        "wilaya_id": 13,
        "code_postal": "1326"
    },
    "795": {
        "nom": "Honaine",
        "wilaya_id": 13,
        "code_postal": "1344"
    },
    "920": {
        "nom": "Maghnia",
        "wilaya_id": 13,
        "code_postal": "1327"
    },
    "932": {
        "nom": "Mansourah",
        "wilaya_id": 13,
        "code_postal": "1351"
    },
    "937": {
        "nom": "Marsa Ben M'hidi",
        "wilaya_id": 13,
        "code_postal": "1339"
    },
    "1013": {
        "nom": "Msirda Fouaga",
        "wilaya_id": 13,
        "code_postal": "1330"
    },
    "1023": {
        "nom": "Nedroma",
        "wilaya_id": 13,
        "code_postal": "1340"
    },
    "1043": {
        "nom": "Oued Chouly",
        "wilaya_id": 13,
        "code_postal": "1311"
    },
    "1125": {
        "nom": "Ouled Mimoun",
        "wilaya_id": 13,
        "code_postal": "1313"
    },
    "1132": {
        "nom": "Ouled Riyah",
        "wilaya_id": 13,
        "code_postal": "1346"
    },
    "1189": {
        "nom": "Remchi",
        "wilaya_id": 13,
        "code_postal": "1304"
    },
    "1200": {
        "nom": "Sabra",
        "wilaya_id": 13,
        "code_postal": "1306"
    },
    "1213": {
        "nom": "Sebbaa Chioukh",
        "wilaya_id": 13,
        "code_postal": "1322"
    },
    "1214": {
        "nom": "Sebdou",
        "wilaya_id": 13,
        "code_postal": "1335"
    },
    "1247": {
        "nom": "Sidi Abdelli",
        "wilaya_id": 13,
        "code_postal": "1334"
    },
    "1285": {
        "nom": "Sidi Djilali",
        "wilaya_id": 13,
        "code_postal": "1341"
    },
    "1311": {
        "nom": "Sidi Medjahed",
        "wilaya_id": 13,
        "code_postal": "1337"
    },
    "1341": {
        "nom": "Souahlia",
        "wilaya_id": 13,
        "code_postal": "1329"
    },
    "1344": {
        "nom": "Souani",
        "wilaya_id": 13,
        "code_postal": "1308"
    },
    "1357": {
        "nom": "Souk Tleta",
        "wilaya_id": 13,
        "code_postal": "1333"
    },
    "1441": {
        "nom": "Terny Beni Hediel",
        "wilaya_id": 13,
        "code_postal": "1323"
    },
    "1451": {
        "nom": "Tianet",
        "wilaya_id": 13,
        "code_postal": "1345"
    },
    "1493": {
        "nom": "Tlemcen",
        "wilaya_id": 13,
        "code_postal": "1301"
    },
    "1528": {
        "nom": "Zenata",
        "wilaya_id": 13,
        "code_postal": "1316"
    },
    "34": {
        "nom": "Ain Bouchekif",
        "wilaya_id": 14,
        "code_postal": "1403"
    },
    "42": {
        "nom": "Ain Deheb",
        "wilaya_id": 14,
        "code_postal": "1406"
    },
    "48": {
        "nom": "Ain El Hadid",
        "wilaya_id": 14,
        "code_postal": "1418"
    },
    "74": {
        "nom": "Ain Kermes",
        "wilaya_id": 14,
        "code_postal": "1428"
    },
    "130": {
        "nom": "Ain Zarit",
        "wilaya_id": 14,
        "code_postal": "1405"
    },
    "376": {
        "nom": "Bougara",
        "wilaya_id": 14,
        "code_postal": "1440"
    },
    "442": {
        "nom": "Chehaima",
        "wilaya_id": 14,
        "code_postal": "1436"
    },
    "477": {
        "nom": "Dahmouni",
        "wilaya_id": 14,
        "code_postal": "1413"
    },
    "514": {
        "nom": "Djebilet Rosfa",
        "wilaya_id": 14,
        "code_postal": "1419"
    },
    "528": {
        "nom": "Djillali Ben Amar",
        "wilaya_id": 14,
        "code_postal": "1424"
    },
    "683": {
        "nom": "Faidja",
        "wilaya_id": 14,
        "code_postal": "1441"
    },
    "700": {
        "nom": "Frenda",
        "wilaya_id": 14,
        "code_postal": "1427"
    },
    "726": {
        "nom": "Guertoufa",
        "wilaya_id": 14,
        "code_postal": "1422"
    },
    "742": {
        "nom": "Hamadia",
        "wilaya_id": 14,
        "code_postal": "1435"
    },
    "864": {
        "nom": "Ksar Chellala",
        "wilaya_id": 14,
        "code_postal": "1429"
    },
    "919": {
        "nom": "Madna",
        "wilaya_id": 14,
        "code_postal": "1410"
    },
    "924": {
        "nom": "Mahdia",
        "wilaya_id": 14,
        "code_postal": "1415"
    },
    "945": {
        "nom": "Mechraa Safa",
        "wilaya_id": 14,
        "code_postal": "1434"
    },
    "954": {
        "nom": "Medrissa",
        "wilaya_id": 14,
        "code_postal": "1408"
    },
    "955": {
        "nom": "Medroussa",
        "wilaya_id": 14,
        "code_postal": "1402"
    },
    "959": {
        "nom": "Meghila",
        "wilaya_id": 14,
        "code_postal": "1421"
    },
    "965": {
        "nom": "Mellakou",
        "wilaya_id": 14,
        "code_postal": "1412"
    },
    "1019": {
        "nom": "Nadorah",
        "wilaya_id": 14,
        "code_postal": "1431"
    },
    "1020": {
        "nom": "Naima",
        "wilaya_id": 14,
        "code_postal": "1420"
    },
    "1064": {
        "nom": "Oued Lilli",
        "wilaya_id": 14,
        "code_postal": "1433"
    },
    "1170": {
        "nom": "Rahouia",
        "wilaya_id": 14,
        "code_postal": "1414"
    },
    "1183": {
        "nom": "Rechaiga",
        "wilaya_id": 14,
        "code_postal": "1430"
    },
    "1212": {
        "nom": "Sebaine",
        "wilaya_id": 14,
        "code_postal": "1425"
    },
    "1217": {
        "nom": "Sebt",
        "wilaya_id": 14,
        "code_postal": "1411"
    },
    "1235": {
        "nom": "Serghine",
        "wilaya_id": 14,
        "code_postal": "1439"
    },
    "1242": {
        "nom": "Si Abdelghani",
        "wilaya_id": 14,
        "code_postal": "1417"
    },
    "1250": {
        "nom": "Sidi Abderrahmane",
        "wilaya_id": 14,
        "code_postal": "1438"
    },
    "1259": {
        "nom": "Sidi Ali Mellal",
        "wilaya_id": 14,
        "code_postal": "1404"
    },
    "1269": {
        "nom": "Sidi Bakhti",
        "wilaya_id": 14,
        "code_postal": "1407"
    },
    "1291": {
        "nom": "Sidi Hosni",
        "wilaya_id": 14,
        "code_postal": "1423"
    },
    "1346": {
        "nom": "Sougueur",
        "wilaya_id": 14,
        "code_postal": "1416"
    },
    "1381": {
        "nom": "Tagdemt",
        "wilaya_id": 14,
        "code_postal": "1432"
    },
    "1389": {
        "nom": "Takhemaret",
        "wilaya_id": 14,
        "code_postal": "1437"
    },
    "1452": {
        "nom": "Tiaret",
        "wilaya_id": 14,
        "code_postal": "1401"
    },
    "1457": {
        "nom": "Tidda",
        "wilaya_id": 14,
        "code_postal": "1442"
    },
    "1500": {
        "nom": "Tousnina",
        "wilaya_id": 14,
        "code_postal": "1426"
    },
    "1538": {
        "nom": "Zmalet El Emir Abdelkade",
        "wilaya_id": 14,
        "code_postal": "1409"
    },
    "2": {
        "nom": "Abi Youcef",
        "wilaya_id": 15,
        "code_postal": "1531"
    },
    "12": {
        "nom": "Aghribs",
        "wilaya_id": 15,
        "code_postal": "1553"
    },
    "13": {
        "nom": "Agouni Gueghrane",
        "wilaya_id": 15,
        "code_postal": "1561"
    },
    "52": {
        "nom": "Ain El Hammam",
        "wilaya_id": 15,
        "code_postal": "1502"
    },
    "129": {
        "nom": "Ain Zaouia",
        "wilaya_id": 15,
        "code_postal": "1525"
    },
    "135": {
        "nom": "Ait Aggouacha",
        "wilaya_id": 15,
        "code_postal": "1535"
    },
    "136": {
        "nom": "Ait Bouaddou",
        "wilaya_id": 15,
        "code_postal": "1565"
    },
    "137": {
        "nom": "Ait Boumehdi",
        "wilaya_id": 15,
        "code_postal": "1530"
    },
    "138": {
        "nom": "Ait Chafaa",
        "wilaya_id": 15,
        "code_postal": "1513"
    },
    "139": {
        "nom": "Ait Khellili",
        "wilaya_id": 15,
        "code_postal": "1558"
    },
    "141": {
        "nom": "Ait Mahmoud",
        "wilaya_id": 15,
        "code_postal": "1528"
    },
    "143": {
        "nom": "Ait Oumalou",
        "wilaya_id": 15,
        "code_postal": "1542"
    },
    "147": {
        "nom": "Ait Toudert",
        "wilaya_id": 15,
        "code_postal": "1567"
    },
    "148": {
        "nom": "Ait Yahia",
        "wilaya_id": 15,
        "code_postal": "1527"
    },
    "149": {
        "nom": "Ait Yahia Moussa",
        "wilaya_id": 15,
        "code_postal": "1556"
    },
    "151": {
        "nom": "Akbil",
        "wilaya_id": 15,
        "code_postal": "1503"
    },
    "153": {
        "nom": "Akerrou",
        "wilaya_id": 15,
        "code_postal": "1544"
    },
    "180": {
        "nom": "Assi Youcef",
        "wilaya_id": 15,
        "code_postal": "1566"
    },
    "183": {
        "nom": "Azazga",
        "wilaya_id": 15,
        "code_postal": "1518"
    },
    "184": {
        "nom": "Azeffoun",
        "wilaya_id": 15,
        "code_postal": "1537"
    },
    "245": {
        "nom": "Beni Aissi",
        "wilaya_id": 15,
        "code_postal": "1515"
    },
    "256": {
        "nom": "Beni Douala",
        "wilaya_id": 15,
        "code_postal": "1532"
    },
    "284": {
        "nom": "Beni Yenni",
        "wilaya_id": 15,
        "code_postal": "1552"
    },
    "287": {
        "nom": "Beni Zikki",
        "wilaya_id": 15,
        "code_postal": "1546"
    },
    "288": {
        "nom": "Beni Zmenzer",
        "wilaya_id": 15,
        "code_postal": "1516"
    },
    "329": {
        "nom": "Boghni",
        "wilaya_id": 15,
        "code_postal": "1540"
    },
    "368": {
        "nom": "Boudjima",
        "wilaya_id": 15,
        "code_postal": "1555"
    },
    "404": {
        "nom": "Bounouh",
        "wilaya_id": 15,
        "code_postal": "1512"
    },
    "422": {
        "nom": "Bouzeguene",
        "wilaya_id": 15,
        "code_postal": "1534"
    },
    "512": {
        "nom": "Djebel Aissa Mimoun",
        "wilaya_id": 15,
        "code_postal": "1539"
    },
    "539": {
        "nom": "Draa Ben Khedda",
        "wilaya_id": 15,
        "code_postal": "1547"
    },
    "540": {
        "nom": "Draa El Mizan",
        "wilaya_id": 15,
        "code_postal": "1510"
    },
    "699": {
        "nom": "Freha",
        "wilaya_id": 15,
        "code_postal": "1504"
    },
    "701": {
        "nom": "Frikat",
        "wilaya_id": 15,
        "code_postal": "1514"
    },
    "800": {
        "nom": "Iboudrarene",
        "wilaya_id": 15,
        "code_postal": "1560"
    },
    "802": {
        "nom": "Idjeur",
        "wilaya_id": 15,
        "code_postal": "1549"
    },
    "804": {
        "nom": "Iferhounene",
        "wilaya_id": 15,
        "code_postal": "1517"
    },
    "805": {
        "nom": "Ifigha",
        "wilaya_id": 15,
        "code_postal": "1541"
    },
    "806": {
        "nom": "Iflissen",
        "wilaya_id": 15,
        "code_postal": "1554"
    },
    "810": {
        "nom": "Illilten",
        "wilaya_id": 15,
        "code_postal": "1533"
    },
    "812": {
        "nom": "Illoula Oumalou",
        "wilaya_id": 15,
        "code_postal": "1519"
    },
    "813": {
        "nom": "Imsouhal",
        "wilaya_id": 15,
        "code_postal": "1563"
    },
    "820": {
        "nom": "Irdjen",
        "wilaya_id": 15,
        "code_postal": "1507"
    },
    "878": {
        "nom": "Larba Nath Irathen",
        "wilaya_id": 15,
        "code_postal": "1521"
    },
    "882": {
        "nom": "Larbaa Nath Irathen",
        "wilaya_id": 15,
        "code_postal": "1568"
    },
    "903": {
        "nom": "M'kira",
        "wilaya_id": 15,
        "code_postal": "1526"
    },
    "917": {
        "nom": "Maatkas",
        "wilaya_id": 15,
        "code_postal": "1529"
    },
    "928": {
        "nom": "Makouda",
        "wilaya_id": 15,
        "code_postal": "1509"
    },
    "946": {
        "nom": "Mechtras",
        "wilaya_id": 15,
        "code_postal": "1506"
    },
    "962": {
        "nom": "Mekla",
        "wilaya_id": 15,
        "code_postal": "1550"
    },
    "995": {
        "nom": "Mizrana",
        "wilaya_id": 15,
        "code_postal": "1562"
    },
    "1030": {
        "nom": "Ouacif",
        "wilaya_id": 15,
        "code_postal": "1548"
    },
    "1031": {
        "nom": "Ouadhias",
        "wilaya_id": 15,
        "code_postal": "1536"
    },
    "1032": {
        "nom": "Ouaguenoune",
        "wilaya_id": 15,
        "code_postal": "1524"
    },
    "1315": {
        "nom": "Sidi Naamane",
        "wilaya_id": 15,
        "code_postal": "1559"
    },
    "1342": {
        "nom": "Souamaa",
        "wilaya_id": 15,
        "code_postal": "1505"
    },
    "1354": {
        "nom": "Souk El Thenine",
        "wilaya_id": 15,
        "code_postal": "1557"
    },
    "1375": {
        "nom": "Tadmait",
        "wilaya_id": 15,
        "code_postal": "1564"
    },
    "1464": {
        "nom": "Tigzirt",
        "wilaya_id": 15,
        "code_postal": "1538"
    },
    "1473": {
        "nom": "Timizart",
        "wilaya_id": 15,
        "code_postal": "1508"
    },
    "1482": {
        "nom": "Tirmitine",
        "wilaya_id": 15,
        "code_postal": "1543"
    },
    "1487": {
        "nom": "Tizi Ghenif",
        "wilaya_id": 15,
        "code_postal": "1511"
    },
    "1490": {
        "nom": "Tizi N'tleta",
        "wilaya_id": 15,
        "code_postal": "1551"
    },
    "1491": {
        "nom": "Tizi Ouzou",
        "wilaya_id": 15,
        "code_postal": "1501"
    },
    "1492": {
        "nom": "Tizi Rached",
        "wilaya_id": 15,
        "code_postal": "1522"
    },
    "1506": {
        "nom": "Yakourene",
        "wilaya_id": 15,
        "code_postal": "1520"
    },
    "1507": {
        "nom": "Yatafene",
        "wilaya_id": 15,
        "code_postal": "1545"
    },
    "1523": {
        "nom": "Zekri",
        "wilaya_id": 15,
        "code_postal": "1523"
    },
    "29": {
        "nom": "Ain Benian",
        "wilaya_id": 16,
        "code_postal": "1657"
    },
    "112": {
        "nom": "Ain Taya",
        "wilaya_id": 16,
        "code_postal": "1641"
    },
    "156": {
        "nom": "Alger Centre",
        "wilaya_id": 16,
        "code_postal": "1601"
    },
    "190": {
        "nom": "Bab El Oued",
        "wilaya_id": 16,
        "code_postal": "1605"
    },
    "191": {
        "nom": "Bab Ezzouar",
        "wilaya_id": 16,
        "code_postal": "1621"
    },
    "192": {
        "nom": "Baba Hesen",
        "wilaya_id": 16,
        "code_postal": "1647"
    },
    "195": {
        "nom": "Bachedjerah",
        "wilaya_id": 16,
        "code_postal": "1619"
    },
    "199": {
        "nom": "Bains Romains",
        "wilaya_id": 16,
        "code_postal": "1624"
    },
    "200": {
        "nom": "Baraki",
        "wilaya_id": 16,
        "code_postal": "1614"
    },
    "224": {
        "nom": "Ben Aknoun",
        "wilaya_id": 16,
        "code_postal": "1622"
    },
    "268": {
        "nom": "Beni Messous",
        "wilaya_id": 16,
        "code_postal": "1632"
    },
    "319": {
        "nom": "Bir Mourad Rais",
        "wilaya_id": 16,
        "code_postal": "1609"
    },
    "321": {
        "nom": "Bir Touta",
        "wilaya_id": 16,
        "code_postal": "1636"
    },
    "323": {
        "nom": "Birkhadem",
        "wilaya_id": 16,
        "code_postal": "1612"
    },
    "330": {
        "nom": "Bologhine Ibnou Ziri",
        "wilaya_id": 16,
        "code_postal": "1606"
    },
    "335": {
        "nom": "Bordj El Bahri",
        "wilaya_id": 16,
        "code_postal": "1642"
    },
    "338": {
        "nom": "Bordj El Kiffan",
        "wilaya_id": 16,
        "code_postal": "1630"
    },
    "409": {
        "nom": "Bourouba",
        "wilaya_id": 16,
        "code_postal": "1616"
    },
    "419": {
        "nom": "Bouzareah",
        "wilaya_id": 16,
        "code_postal": "1611"
    },
    "429": {
        "nom": "Casbah",
        "wilaya_id": 16,
        "code_postal": "1607"
    },
    "454": {
        "nom": "Cheraga",
        "wilaya_id": 16,
        "code_postal": "1652"
    },
    "484": {
        "nom": "Dar El Beida",
        "wilaya_id": 16,
        "code_postal": "1620"
    },
    "495": {
        "nom": "Dely Ibrahim",
        "wilaya_id": 16,
        "code_postal": "1623"
    },
    "507": {
        "nom": "Djasr Kasentina",
        "wilaya_id": 16,
        "code_postal": "1626"
    },
    "536": {
        "nom": "Douira",
        "wilaya_id": 16,
        "code_postal": "1648"
    },
    "543": {
        "nom": "Draria",
        "wilaya_id": 16,
        "code_postal": "1649"
    },
    "550": {
        "nom": "El Achour",
        "wilaya_id": 16,
        "code_postal": "1654"
    },
    "572": {
        "nom": "El Biar",
        "wilaya_id": 16,
        "code_postal": "1610"
    },
    "614": {
        "nom": "El Harrach",
        "wilaya_id": 16,
        "code_postal": "1613"
    },
    "636": {
        "nom": "El Madania",
        "wilaya_id": 16,
        "code_postal": "1603"
    },
    "638": {
        "nom": "El Magharia",
        "wilaya_id": 16,
        "code_postal": "1631"
    },
    "653": {
        "nom": "El Merssa",
        "wilaya_id": 16,
        "code_postal": "1643"
    },
    "658": {
        "nom": "El Mouradia",
        "wilaya_id": 16,
        "code_postal": "1627"
    },
    "792": {
        "nom": "Herraoua",
        "wilaya_id": 16,
        "code_postal": "1639"
    },
    "797": {
        "nom": "Hussein Dey",
        "wilaya_id": 16,
        "code_postal": "1617"
    },
    "798": {
        "nom": "Hydra",
        "wilaya_id": 16,
        "code_postal": "1628"
    },
    "849": {
        "nom": "Kheraisia",
        "wilaya_id": 16,
        "code_postal": "1656"
    },
    "859": {
        "nom": "Kouba",
        "wilaya_id": 16,
        "code_postal": "1618"
    },
    "892": {
        "nom": "Les Eucalyptus",
        "wilaya_id": 16,
        "code_postal": "1633"
    },
    "913": {
        "nom": "Maalma",
        "wilaya_id": 16,
        "code_postal": "1646"
    },
    "1000": {
        "nom": "Mohamed Belouzdad",
        "wilaya_id": 16,
        "code_postal": "1604"
    },
    "1002": {
        "nom": "Mohammadia",
        "wilaya_id": 16,
        "code_postal": "1629"
    },
    "1063": {
        "nom": "Oued Koriche",
        "wilaya_id": 16,
        "code_postal": "1608"
    },
    "1074": {
        "nom": "Oued Smar",
        "wilaya_id": 16,
        "code_postal": "1615"
    },
    "1103": {
        "nom": "Ouled Chebel",
        "wilaya_id": 16,
        "code_postal": "1635"
    },
    "1111": {
        "nom": "Ouled Fayet",
        "wilaya_id": 16,
        "code_postal": "1651"
    },
    "1169": {
        "nom": "Rahmania",
        "wilaya_id": 16,
        "code_postal": "1650"
    },
    "1171": {
        "nom": "Rais Hamidou",
        "wilaya_id": 16,
        "code_postal": "1625"
    },
    "1186": {
        "nom": "Reghaia",
        "wilaya_id": 16,
        "code_postal": "1640"
    },
    "1197": {
        "nom": "Rouiba",
        "wilaya_id": 16,
        "code_postal": "1638"
    },
    "1228": {
        "nom": "Sehaoula",
        "wilaya_id": 16,
        "code_postal": "1645"
    },
    "1237": {
        "nom": "Setaouali",
        "wilaya_id": 16,
        "code_postal": "1653"
    },
    "1305": {
        "nom": "Sidi M'hamed",
        "wilaya_id": 16,
        "code_postal": "1602"
    },
    "1314": {
        "nom": "Sidi Moussa",
        "wilaya_id": 16,
        "code_postal": "1637"
    },
    "1348": {
        "nom": "Souidania",
        "wilaya_id": 16,
        "code_postal": "1655"
    },
    "1447": {
        "nom": "Tessala El Merdja",
        "wilaya_id": 16,
        "code_postal": "1634"
    },
    "1529": {
        "nom": "Zeralda",
        "wilaya_id": 16,
        "code_postal": "1644"
    },
    "40": {
        "nom": "Ain Chouhada",
        "wilaya_id": 17,
        "code_postal": "1723"
    },
    "53": {
        "nom": "Ain El Ibel",
        "wilaya_id": 17,
        "code_postal": "1730"
    },
    "60": {
        "nom": "Ain Fekka",
        "wilaya_id": 17,
        "code_postal": "1735"
    },
    "83": {
        "nom": "Ain Maabed",
        "wilaya_id": 17,
        "code_postal": "1705"
    },
    "93": {
        "nom": "Ain Oussera",
        "wilaya_id": 17,
        "code_postal": "1731"
    },
    "166": {
        "nom": "Amourah",
        "wilaya_id": 17,
        "code_postal": "1734"
    },
    "243": {
        "nom": "Benhar",
        "wilaya_id": 17,
        "code_postal": "1732"
    },
    "293": {
        "nom": "Benyagoub",
        "wilaya_id": 17,
        "code_postal": "1727"
    },
    "322": {
        "nom": "Birine",
        "wilaya_id": 17,
        "code_postal": "1708"
    },
    "391": {
        "nom": "Bouira Lahdab",
        "wilaya_id": 17,
        "code_postal": "1709"
    },
    "436": {
        "nom": "Charef",
        "wilaya_id": 17,
        "code_postal": "1726"
    },
    "483": {
        "nom": "Dar Chioukh",
        "wilaya_id": 17,
        "code_postal": "1725"
    },
    "492": {
        "nom": "Deldoul",
        "wilaya_id": 17,
        "code_postal": "1729"
    },
    "515": {
        "nom": "Djelfa",
        "wilaya_id": 17,
        "code_postal": "1701"
    },
    "537": {
        "nom": "Douis",
        "wilaya_id": 17,
        "code_postal": "1715"
    },
    "592": {
        "nom": "El Guedid",
        "wilaya_id": 17,
        "code_postal": "1703"
    },
    "620": {
        "nom": "El Idrissia",
        "wilaya_id": 17,
        "code_postal": "1714"
    },
    "630": {
        "nom": "El Khemis",
        "wilaya_id": 17,
        "code_postal": "1711"
    },
    "682": {
        "nom": "Faidh El Botma",
        "wilaya_id": 17,
        "code_postal": "1707"
    },
    "723": {
        "nom": "Guernini",
        "wilaya_id": 17,
        "code_postal": "1721"
    },
    "727": {
        "nom": "Guettara",
        "wilaya_id": 17,
        "code_postal": "1718"
    },
    "733": {
        "nom": "Had Sahary",
        "wilaya_id": 17,
        "code_postal": "1720"
    },
    "771": {
        "nom": "Hassi Bahbah",
        "wilaya_id": 17,
        "code_postal": "1704"
    },
    "777": {
        "nom": "Hassi El Euch",
        "wilaya_id": 17,
        "code_postal": "1716"
    },
    "779": {
        "nom": "Hassi Fedoul",
        "wilaya_id": 17,
        "code_postal": "1733"
    },
    "897": {
        "nom": "M Liliha",
        "wilaya_id": 17,
        "code_postal": "1713"
    },
    "979": {
        "nom": "Messaad",
        "wilaya_id": 17,
        "code_postal": "1717"
    },
    "1007": {
        "nom": "Moudjebara",
        "wilaya_id": 17,
        "code_postal": "1702"
    },
    "1155": {
        "nom": "Oum Laadham",
        "wilaya_id": 17,
        "code_postal": "1724"
    },
    "1218": {
        "nom": "Sed Rahal",
        "wilaya_id": 17,
        "code_postal": "1706"
    },
    "1231": {
        "nom": "Selmana",
        "wilaya_id": 17,
        "code_postal": "1722"
    },
    "1268": {
        "nom": "Sidi Baizid",
        "wilaya_id": 17,
        "code_postal": "1712"
    },
    "1299": {
        "nom": "Sidi Ladjel",
        "wilaya_id": 17,
        "code_postal": "1719"
    },
    "1376": {
        "nom": "Tadmit",
        "wilaya_id": 17,
        "code_postal": "1736"
    },
    "1512": {
        "nom": "Zaafrane",
        "wilaya_id": 17,
        "code_postal": "1728"
    },
    "1514": {
        "nom": "Zaccar",
        "wilaya_id": 17,
        "code_postal": "1710"
    },
    "345": {
        "nom": "Bordj Tahar",
        "wilaya_id": 18,
        "code_postal": "1826"
    },
    "371": {
        "nom": "Boudria Beniyadjis",
        "wilaya_id": 18,
        "code_postal": "1822"
    },
    "407": {
        "nom": "Bouraoui Belhadef",
        "wilaya_id": 18,
        "code_postal": "1816"
    },
    "414": {
        "nom": "Boussif Ouled Askeur",
        "wilaya_id": 18,
        "code_postal": "1819"
    },
    "433": {
        "nom": "Chahna",
        "wilaya_id": 18,
        "code_postal": "1808"
    },
    "443": {
        "nom": "Chekfa",
        "wilaya_id": 18,
        "code_postal": "1807"
    },
    "518": {
        "nom": "Djemaa Beni Habibi",
        "wilaya_id": 18,
        "code_postal": "1825"
    },
    "529": {
        "nom": "Djimla",
        "wilaya_id": 18,
        "code_postal": "1817"
    },
    "559": {
        "nom": "El Ancer",
        "wilaya_id": 18,
        "code_postal": "1812"
    },
    "561": {
        "nom": "El Aouana",
        "wilaya_id": 18,
        "code_postal": "1803"
    },
    "624": {
        "nom": "El Kennar Nouchfi",
        "wilaya_id": 18,
        "code_postal": "1820"
    },
    "656": {
        "nom": "El Milia",
        "wilaya_id": 18,
        "code_postal": "1809"
    },
    "673": {
        "nom": "Emir Abdelkader",
        "wilaya_id": 18,
        "code_postal": "1806"
    },
    "678": {
        "nom": "Erraguene",
        "wilaya_id": 18,
        "code_postal": "1802"
    },
    "709": {
        "nom": "Ghebala",
        "wilaya_id": 18,
        "code_postal": "1815"
    },
    "822": {
        "nom": "Jijel",
        "wilaya_id": 18,
        "code_postal": "1801"
    },
    "854": {
        "nom": "Khiri Oued Adjoul",
        "wilaya_id": 18,
        "code_postal": "1823"
    },
    "858": {
        "nom": "Kouas",
        "wilaya_id": 18,
        "code_postal": "1814"
    },
    "1037": {
        "nom": "Oudjana",
        "wilaya_id": 18,
        "code_postal": "1828"
    },
    "1128": {
        "nom": "Ouled Rabah",
        "wilaya_id": 18,
        "code_postal": "1827"
    },
    "1144": {
        "nom": "Ouled Yahia Khadrouch",
        "wilaya_id": 18,
        "code_postal": "1821"
    },
    "1230": {
        "nom": "Selma Benziada",
        "wilaya_id": 18,
        "code_postal": "1818"
    },
    "1239": {
        "nom": "Settara",
        "wilaya_id": 18,
        "code_postal": "1811"
    },
    "1245": {
        "nom": "Sidi Abdelaziz",
        "wilaya_id": 18,
        "code_postal": "1813"
    },
    "1310": {
        "nom": "Sidi Marouf",
        "wilaya_id": 18,
        "code_postal": "1810"
    },
    "1387": {
        "nom": "Taher",
        "wilaya_id": 18,
        "code_postal": "1805"
    },
    "1448": {
        "nom": "Texena",
        "wilaya_id": 18,
        "code_postal": "1824"
    },
    "1534": {
        "nom": "Ziama Mansouria",
        "wilaya_id": 18,
        "code_postal": "1804"
    },
    "17": {
        "nom": "Ain Abessa",
        "wilaya_id": 19,
        "code_postal": "1914"
    },
    "21": {
        "nom": "Ain Arnat",
        "wilaya_id": 19,
        "code_postal": "1926"
    },
    "22": {
        "nom": "Ain Azel",
        "wilaya_id": 19,
        "code_postal": "1940"
    },
    "54": {
        "nom": "Ain El Kebira",
        "wilaya_id": 19,
        "code_postal": "1902"
    },
    "77": {
        "nom": "Ain Lahdjar",
        "wilaya_id": 19,
        "code_postal": "1918"
    },
    "81": {
        "nom": "Ain Legradj",
        "wilaya_id": 19,
        "code_postal": "1913"
    },
    "92": {
        "nom": "Ain Oulmane",
        "wilaya_id": 19,
        "code_postal": "1928"
    },
    "98": {
        "nom": "Ain Roua",
        "wilaya_id": 19,
        "code_postal": "1906"
    },
    "100": {
        "nom": "Ain Sebt",
        "wilaya_id": 19,
        "code_postal": "1949"
    },
    "142": {
        "nom": "Ait Naoual Mezada",
        "wilaya_id": 19,
        "code_postal": "1951"
    },
    "146": {
        "nom": "Ait Tizi",
        "wilaya_id": 19,
        "code_postal": "1954"
    },
    "165": {
        "nom": "Amoucha",
        "wilaya_id": 19,
        "code_postal": "1927"
    },
    "194": {
        "nom": "Babor",
        "wilaya_id": 19,
        "code_postal": "1916"
    },
    "207": {
        "nom": "Bazer Sakra",
        "wilaya_id": 19,
        "code_postal": "1931"
    },
    "213": {
        "nom": "Beidha Bordj",
        "wilaya_id": 19,
        "code_postal": "1929"
    },
    "223": {
        "nom": "Bellaa",
        "wilaya_id": 19,
        "code_postal": "1925"
    },
    "247": {
        "nom": "Beni Aziz",
        "wilaya_id": 19,
        "code_postal": "1903"
    },
    "253": {
        "nom": "Beni Chebana",
        "wilaya_id": 19,
        "code_postal": "1909"
    },
    "257": {
        "nom": "Beni Fouda",
        "wilaya_id": 19,
        "code_postal": "1944"
    },
    "272": {
        "nom": "Beni Mouhli",
        "wilaya_id": 19,
        "code_postal": "1946"
    },
    "274": {
        "nom": "Beni Ouartilane",
        "wilaya_id": 19,
        "code_postal": "1922"
    },
    "277": {
        "nom": "Beni Oussine",
        "wilaya_id": 19,
        "code_postal": "1953"
    },
    "310": {
        "nom": "Bir El Arch",
        "wilaya_id": 19,
        "code_postal": "1908"
    },
    "316": {
        "nom": "Bir Haddada",
        "wilaya_id": 19,
        "code_postal": "1934"
    },
    "357": {
        "nom": "Bouandas",
        "wilaya_id": 19,
        "code_postal": "1930"
    },
    "374": {
        "nom": "Bougaa",
        "wilaya_id": 19,
        "code_postal": "1943"
    },
    "412": {
        "nom": "Bousselam",
        "wilaya_id": 19,
        "code_postal": "1919"
    },
    "415": {
        "nom": "Boutaleb",
        "wilaya_id": 19,
        "code_postal": "1905"
    },
    "491": {
        "nom": "Dehamcha",
        "wilaya_id": 19,
        "code_postal": "1915"
    },
    "520": {
        "nom": "Djemila",
        "wilaya_id": 19,
        "code_postal": "1921"
    },
    "542": {
        "nom": "Draa Kebila",
        "wilaya_id": 19,
        "code_postal": "1907"
    },
    "581": {
        "nom": "El Eulma",
        "wilaya_id": 19,
        "code_postal": "1920"
    },
    "667": {
        "nom": "El Ouldja",
        "wilaya_id": 19,
        "code_postal": "1959"
    },
    "669": {
        "nom": "El Ouricia",
        "wilaya_id": 19,
        "code_postal": "1937"
    },
    "716": {
        "nom": "Guellal",
        "wilaya_id": 19,
        "code_postal": "1948"
    },
    "718": {
        "nom": "Guelta Zerka",
        "wilaya_id": 19,
        "code_postal": "1956"
    },
    "721": {
        "nom": "Guenzet",
        "wilaya_id": 19,
        "code_postal": "1941"
    },
    "728": {
        "nom": "Guidjel",
        "wilaya_id": 19,
        "code_postal": "1917"
    },
    "745": {
        "nom": "Hamam Soukhna",
        "wilaya_id": 19,
        "code_postal": "1932"
    },
    "746": {
        "nom": "Hamma",
        "wilaya_id": 19,
        "code_postal": "1911"
    },
    "752": {
        "nom": "Hammam Guergour",
        "wilaya_id": 19,
        "code_postal": "1950"
    },
    "765": {
        "nom": "Harbil",
        "wilaya_id": 19,
        "code_postal": "1936"
    },
    "865": {
        "nom": "Ksar El Abtal",
        "wilaya_id": 19,
        "code_postal": "1952"
    },
    "915": {
        "nom": "Maaouia",
        "wilaya_id": 19,
        "code_postal": "1912"
    },
    "934": {
        "nom": "Maouaklane",
        "wilaya_id": 19,
        "code_postal": "1955"
    },
    "989": {
        "nom": "Mezloug",
        "wilaya_id": 19,
        "code_postal": "1933"
    },
    "1050": {
        "nom": "Oued El Barad",
        "wilaya_id": 19,
        "code_postal": "1957"
    },
    "1086": {
        "nom": "Ouled Addouane",
        "wilaya_id": 19,
        "code_postal": "1924"
    },
    "1133": {
        "nom": "Ouled Sabor",
        "wilaya_id": 19,
        "code_postal": "1947"
    },
    "1136": {
        "nom": "Ouled Si Ahmed",
        "wilaya_id": 19,
        "code_postal": "1904"
    },
    "1143": {
        "nom": "Ouled Tebben",
        "wilaya_id": 19,
        "code_postal": "1910"
    },
    "1195": {
        "nom": "Rosfa",
        "wilaya_id": 19,
        "code_postal": "1923"
    },
    "1206": {
        "nom": "Salah Bey",
        "wilaya_id": 19,
        "code_postal": "1939"
    },
    "1234": {
        "nom": "Serdj El Ghoul",
        "wilaya_id": 19,
        "code_postal": "1935"
    },
    "1238": {
        "nom": "Setif",
        "wilaya_id": 19,
        "code_postal": "1901"
    },
    "1370": {
        "nom": "Tachouda",
        "wilaya_id": 19,
        "code_postal": "1945"
    },
    "1391": {
        "nom": "Tala Ifacene",
        "wilaya_id": 19,
        "code_postal": "1942"
    },
    "1422": {
        "nom": "Taya",
        "wilaya_id": 19,
        "code_postal": "1958"
    },
    "1433": {
        "nom": "Tella",
        "wilaya_id": 19,
        "code_postal": "1960"
    },
    "1488": {
        "nom": "Tizi N'bechar",
        "wilaya_id": 19,
        "code_postal": "1938"
    },
    "50": {
        "nom": "Ain El Hadjar",
        "wilaya_id": 20,
        "code_postal": "2003"
    },
    "101": {
        "nom": "Ain Sekhouna",
        "wilaya_id": 20,
        "code_postal": "2013"
    },
    "105": {
        "nom": "Ain Soltane",
        "wilaya_id": 20,
        "code_postal": "2016"
    },
    "535": {
        "nom": "Doui Thabet",
        "wilaya_id": 20,
        "code_postal": "2002"
    },
    "615": {
        "nom": "El Hassasna",
        "wilaya_id": 20,
        "code_postal": "2010"
    },
    "796": {
        "nom": "Hounet",
        "wilaya_id": 20,
        "code_postal": "2007"
    },
    "914": {
        "nom": "Maamora",
        "wilaya_id": 20,
        "code_postal": "2011"
    },
    "1008": {
        "nom": "Moulay Larbi",
        "wilaya_id": 20,
        "code_postal": "2005"
    },
    "1101": {
        "nom": "Ouled Brahim",
        "wilaya_id": 20,
        "code_postal": "2014"
    },
    "1117": {
        "nom": "Ouled Khaled",
        "wilaya_id": 20,
        "code_postal": "2004"
    },
    "1205": {
        "nom": "Saida",
        "wilaya_id": 20,
        "code_postal": "2001"
    },
    "1252": {
        "nom": "Sidi Ahmed",
        "wilaya_id": 20,
        "code_postal": "2012"
    },
    "1260": {
        "nom": "Sidi Amar",
        "wilaya_id": 20,
        "code_postal": "2008"
    },
    "1274": {
        "nom": "Sidi Boubekeur",
        "wilaya_id": 20,
        "code_postal": "2009"
    },
    "1481": {
        "nom": "Tircine",
        "wilaya_id": 20,
        "code_postal": "2015"
    },
    "1509": {
        "nom": "Youb",
        "wilaya_id": 20,
        "code_postal": "2006"
    },
    "38": {
        "nom": "Ain Bouziane",
        "wilaya_id": 21,
        "code_postal": "2122"
    },
    "39": {
        "nom": "Ain Charchar",
        "wilaya_id": 21,
        "code_postal": "2106"
    },
    "70": {
        "nom": "Ain Kechera",
        "wilaya_id": 21,
        "code_postal": "2127"
    },
    "133": {
        "nom": "Ain Zouit",
        "wilaya_id": 21,
        "code_postal": "2102"
    },
    "187": {
        "nom": "Azzaba",
        "wilaya_id": 21,
        "code_postal": "2104"
    },
    "216": {
        "nom": "Bekkouche Lakhdar",
        "wilaya_id": 21,
        "code_postal": "2107"
    },
    "226": {
        "nom": "Ben Azzouz",
        "wilaya_id": 21,
        "code_postal": "2108"
    },
    "249": {
        "nom": "Beni Bechir",
        "wilaya_id": 21,
        "code_postal": "2124"
    },
    "275": {
        "nom": "Beni Oulbane",
        "wilaya_id": 21,
        "code_postal": "2121"
    },
    "286": {
        "nom": "Beni Zid",
        "wilaya_id": 21,
        "code_postal": "2111"
    },
    "305": {
        "nom": "Bin El Ouiden",
        "wilaya_id": 21,
        "code_postal": "2129"
    },
    "362": {
        "nom": "Bouchetata",
        "wilaya_id": 21,
        "code_postal": "2134"
    },
    "455": {
        "nom": "Cheraia",
        "wilaya_id": 21,
        "code_postal": "2131"
    },
    "474": {
        "nom": "Collo",
        "wilaya_id": 21,
        "code_postal": "2110"
    },
    "523": {
        "nom": "Djendel Saadi Mohamed",
        "wilaya_id": 21,
        "code_postal": "2105"
    },
    "564": {
        "nom": "El Arrouch",
        "wilaya_id": 21,
        "code_postal": "2116"
    },
    "587": {
        "nom": "El Ghedir",
        "wilaya_id": 21,
        "code_postal": "2133"
    },
    "601": {
        "nom": "El Hadaiek",
        "wilaya_id": 21,
        "code_postal": "2103"
    },
    "646": {
        "nom": "El Marsa",
        "wilaya_id": 21,
        "code_postal": "2138"
    },
    "675": {
        "nom": "Emjez Edchich",
        "wilaya_id": 21,
        "code_postal": "2120"
    },
    "679": {
        "nom": "Es Sebt",
        "wilaya_id": 21,
        "code_postal": "2109"
    },
    "692": {
        "nom": "Filfila",
        "wilaya_id": 21,
        "code_postal": "2130"
    },
    "741": {
        "nom": "Hamadi Krouma",
        "wilaya_id": 21,
        "code_postal": "2137"
    },
    "826": {
        "nom": "Kanoua",
        "wilaya_id": 21,
        "code_postal": "2132"
    },
    "832": {
        "nom": "Kerkera",
        "wilaya_id": 21,
        "code_postal": "2112"
    },
    "845": {
        "nom": "Khenag Mayoum",
        "wilaya_id": 21,
        "code_postal": "2136"
    },
    "1080": {
        "nom": "Oued Zhour",
        "wilaya_id": 21,
        "code_postal": "2114"
    },
    "1083": {
        "nom": "Ouldja Boulbalout",
        "wilaya_id": 21,
        "code_postal": "2135"
    },
    "1094": {
        "nom": "Ouled Attia",
        "wilaya_id": 21,
        "code_postal": "2113"
    },
    "1113": {
        "nom": "Ouled Habbeba",
        "wilaya_id": 21,
        "code_postal": "2118"
    },
    "1156": {
        "nom": "Oum Toub",
        "wilaya_id": 21,
        "code_postal": "2128"
    },
    "1172": {
        "nom": "Ramdane Djamel",
        "wilaya_id": 21,
        "code_postal": "2123"
    },
    "1207": {
        "nom": "Salah Bouchaour",
        "wilaya_id": 21,
        "code_postal": "2125"
    },
    "1313": {
        "nom": "Sidi Mezghiche",
        "wilaya_id": 21,
        "code_postal": "2119"
    },
    "1335": {
        "nom": "Skikda",
        "wilaya_id": 21,
        "code_postal": "2101"
    },
    "1396": {
        "nom": "Tamalous",
        "wilaya_id": 21,
        "code_postal": "2126"
    },
    "1530": {
        "nom": "Zerdezas",
        "wilaya_id": 21,
        "code_postal": "2117"
    },
    "1536": {
        "nom": "Zitouna",
        "wilaya_id": 21,
        "code_postal": "2115"
    },
    "19": {
        "nom": "Ain Adden",
        "wilaya_id": 22,
        "code_postal": "2230"
    },
    "47": {
        "nom": "Ain El Berd",
        "wilaya_id": 22,
        "code_postal": "2228"
    },
    "68": {
        "nom": "Ain Kada",
        "wilaya_id": 22,
        "code_postal": "2225"
    },
    "116": {
        "nom": "Ain Thrid",
        "wilaya_id": 22,
        "code_postal": "2215"
    },
    "117": {
        "nom": "Ain Tindamine",
        "wilaya_id": 22,
        "code_postal": "2224"
    },
    "158": {
        "nom": "Amarnas",
        "wilaya_id": 22,
        "code_postal": "2212"
    },
    "196": {
        "nom": "Badredine El Mokrani",
        "wilaya_id": 22,
        "code_postal": "2209"
    },
    "220": {
        "nom": "Belarbi",
        "wilaya_id": 22,
        "code_postal": "2242"
    },
    "227": {
        "nom": "Ben Badis",
        "wilaya_id": 22,
        "code_postal": "2245"
    },
    "240": {
        "nom": "Benachiba Chelia",
        "wilaya_id": 22,
        "code_postal": "2251"
    },
    "313": {
        "nom": "Bir El Hammam",
        "wilaya_id": 22,
        "code_postal": "2248"
    },
    "366": {
        "nom": "Boudjebaa El Bordj",
        "wilaya_id": 22,
        "code_postal": "2238"
    },
    "395": {
        "nom": "Boukhanafis",
        "wilaya_id": 22,
        "code_postal": "2207"
    },
    "462": {
        "nom": "Chetouane Belaila",
        "wilaya_id": 22,
        "code_postal": "2247"
    },
    "500": {
        "nom": "Dhaya",
        "wilaya_id": 22,
        "code_postal": "2232"
    },
    "598": {
        "nom": "El Hacaiba",
        "wilaya_id": 22,
        "code_postal": "2219"
    },
    "775": {
        "nom": "Hassi Dahou",
        "wilaya_id": 22,
        "code_postal": "2252"
    },
    "787": {
        "nom": "Hassi Zahana",
        "wilaya_id": 22,
        "code_postal": "2220"
    },
    "877": {
        "nom": "Lamtar",
        "wilaya_id": 22,
        "code_postal": "2234"
    },
    "899": {
        "nom": "M'cid",
        "wilaya_id": 22,
        "code_postal": "2226"
    },
    "925": {
        "nom": "Makedra",
        "wilaya_id": 22,
        "code_postal": "2216"
    },
    "936": {
        "nom": "Marhoum",
        "wilaya_id": 22,
        "code_postal": "2210"
    },
    "974": {
        "nom": "Merine",
        "wilaya_id": 22,
        "code_postal": "2222"
    },
    "985": {
        "nom": "Mezaourou",
        "wilaya_id": 22,
        "code_postal": "2206"
    },
    "1006": {
        "nom": "Mostefa Ben Brahim",
        "wilaya_id": 22,
        "code_postal": "2204"
    },
    "1009": {
        "nom": "Moulay Slissen",
        "wilaya_id": 22,
        "code_postal": "2218"
    },
    "1069": {
        "nom": "Oued Sebaa",
        "wilaya_id": 22,
        "code_postal": "2237"
    },
    "1071": {
        "nom": "Oued Sefioun",
        "wilaya_id": 22,
        "code_postal": "2243"
    },
    "1076": {
        "nom": "Oued Taourira",
        "wilaya_id": 22,
        "code_postal": "2231"
    },
    "1179": {
        "nom": "Ras El Ma",
        "wilaya_id": 22,
        "code_postal": "2223"
    },
    "1184": {
        "nom": "Redjem Demouche",
        "wilaya_id": 22,
        "code_postal": "2250"
    },
    "1227": {
        "nom": "Sehala Thaoura",
        "wilaya_id": 22,
        "code_postal": "2239"
    },
    "1240": {
        "nom": "Sfissef",
        "wilaya_id": 22,
        "code_postal": "2229"
    },
    "1257": {
        "nom": "Sidi Ali Benyoub",
        "wilaya_id": 22,
        "code_postal": "2246"
    },
    "1258": {
        "nom": "Sidi Ali Boussidi",
        "wilaya_id": 22,
        "code_postal": "2208"
    },
    "1270": {
        "nom": "Sidi Bel Abbes",
        "wilaya_id": 22,
        "code_postal": "2201"
    },
    "1279": {
        "nom": "Sidi Brahim",
        "wilaya_id": 22,
        "code_postal": "2203"
    },
    "1280": {
        "nom": "Sidi Chaib",
        "wilaya_id": 22,
        "code_postal": "2235"
    },
    "1282": {
        "nom": "Sidi Dahou Zairs",
        "wilaya_id": 22,
        "code_postal": "2236"
    },
    "1290": {
        "nom": "Sidi Hamadouche",
        "wilaya_id": 22,
        "code_postal": "2241"
    },
    "1293": {
        "nom": "Sidi Khaled",
        "wilaya_id": 22,
        "code_postal": "2227"
    },
    "1300": {
        "nom": "Sidi Lahcene",
        "wilaya_id": 22,
        "code_postal": "2214"
    },
    "1329": {
        "nom": "Sidi Yacoub",
        "wilaya_id": 22,
        "code_postal": "2240"
    },
    "1367": {
        "nom": "Tabia",
        "wilaya_id": 22,
        "code_postal": "2221"
    },
    "1377": {
        "nom": "Tafissour",
        "wilaya_id": 22,
        "code_postal": "2211"
    },
    "1409": {
        "nom": "Taoudmout",
        "wilaya_id": 22,
        "code_postal": "2249"
    },
    "1429": {
        "nom": "Teghalimet",
        "wilaya_id": 22,
        "code_postal": "2244"
    },
    "1430": {
        "nom": "Telagh",
        "wilaya_id": 22,
        "code_postal": "2205"
    },
    "1439": {
        "nom": "Tenira",
        "wilaya_id": 22,
        "code_postal": "2217"
    },
    "1445": {
        "nom": "Tessala",
        "wilaya_id": 22,
        "code_postal": "2202"
    },
    "1466": {
        "nom": "Tilmouni",
        "wilaya_id": 22,
        "code_postal": "2213"
    },
    "1533": {
        "nom": "Zerouala",
        "wilaya_id": 22,
        "code_postal": "2233"
    },
    "31": {
        "nom": "Ain Berda",
        "wilaya_id": 23,
        "code_postal": "2309"
    },
    "167": {
        "nom": "Annaba",
        "wilaya_id": 23,
        "code_postal": "2301"
    },
    "297": {
        "nom": "Berrahel",
        "wilaya_id": 23,
        "code_postal": "2302"
    },
    "459": {
        "nom": "Chetaibi",
        "wilaya_id": 23,
        "code_postal": "2310"
    },
    "464": {
        "nom": "Cheurfa",
        "wilaya_id": 23,
        "code_postal": "2307"
    },
    "578": {
        "nom": "El Bouni",
        "wilaya_id": 23,
        "code_postal": "2305"
    },
    "604": {
        "nom": "El Hadjar",
        "wilaya_id": 23,
        "code_postal": "2303"
    },
    "681": {
        "nom": "Eulma",
        "wilaya_id": 23,
        "code_postal": "2304"
    },
    "1049": {
        "nom": "Oued El Aneb",
        "wilaya_id": 23,
        "code_postal": "2306"
    },
    "1233": {
        "nom": "Seraidi",
        "wilaya_id": 23,
        "code_postal": "2308"
    },
    "1261": {
        "nom": "Sidi Amar",
        "wilaya_id": 23,
        "code_postal": "2311"
    },
    "1501": {
        "nom": "Treat",
        "wilaya_id": 23,
        "code_postal": "2312"
    },
    "27": {
        "nom": "Ain Ben Beida",
        "wilaya_id": 24,
        "code_postal": "2414"
    },
    "67": {
        "nom": "Ain Hessania",
        "wilaya_id": 24,
        "code_postal": "2427"
    },
    "79": {
        "nom": "Ain Larbi",
        "wilaya_id": 24,
        "code_postal": "2423"
    },
    "85": {
        "nom": "Ain Makhlouf",
        "wilaya_id": 24,
        "code_postal": "2413"
    },
    "95": {
        "nom": "Ain Reggada",
        "wilaya_id": 24,
        "code_postal": "2432"
    },
    "222": {
        "nom": "Belkheir",
        "wilaya_id": 24,
        "code_postal": "2410"
    },
    "232": {
        "nom": "Ben Djarah",
        "wilaya_id": 24,
        "code_postal": "2411"
    },
    "270": {
        "nom": "Beni Mezline",
        "wilaya_id": 24,
        "code_postal": "2416"
    },
    "344": {
        "nom": "Bordj Sabat",
        "wilaya_id": 24,
        "code_postal": "2421"
    },
    "348": {
        "nom": "Bou Hachana",
        "wilaya_id": 24,
        "code_postal": "2417"
    },
    "349": {
        "nom": "Bou Hamdane",
        "wilaya_id": 24,
        "code_postal": "2412"
    },
    "359": {
        "nom": "Bouati Mahmoud",
        "wilaya_id": 24,
        "code_postal": "2403"
    },
    "361": {
        "nom": "Bouchegouf",
        "wilaya_id": 24,
        "code_postal": "2425"
    },
    "382": {
        "nom": "Bouhamra Ahmed",
        "wilaya_id": 24,
        "code_postal": "2431"
    },
    "478": {
        "nom": "Dahouara",
        "wilaya_id": 24,
        "code_postal": "2409"
    },
    "511": {
        "nom": "Djeballah Khemissi",
        "wilaya_id": 24,
        "code_postal": "2434"
    },
    "582": {
        "nom": "El Fedjoudj",
        "wilaya_id": 24,
        "code_postal": "2420"
    },
    "715": {
        "nom": "Guelaat Bou Sbaa",
        "wilaya_id": 24,
        "code_postal": "2418"
    },
    "717": {
        "nom": "Guelma",
        "wilaya_id": 24,
        "code_postal": "2401"
    },
    "744": {
        "nom": "Hamam Debagh",
        "wilaya_id": 24,
        "code_postal": "2419"
    },
    "754": {
        "nom": "Hammam N'bail",
        "wilaya_id": 24,
        "code_postal": "2422"
    },
    "789": {
        "nom": "Heliopolis",
        "wilaya_id": 24,
        "code_postal": "2426"
    },
    "852": {
        "nom": "Khezara",
        "wilaya_id": 24,
        "code_postal": "2415"
    },
    "952": {
        "nom": "Medjez Amar",
        "wilaya_id": 24,
        "code_postal": "2424"
    },
    "953": {
        "nom": "Medjez Sfa",
        "wilaya_id": 24,
        "code_postal": "2430"
    },
    "1022": {
        "nom": "Nechmaya",
        "wilaya_id": 24,
        "code_postal": "2402"
    },
    "1041": {
        "nom": "Oued Cheham",
        "wilaya_id": 24,
        "code_postal": "2433"
    },
    "1058": {
        "nom": "Oued Fragha",
        "wilaya_id": 24,
        "code_postal": "2406"
    },
    "1079": {
        "nom": "Oued Zenati",
        "wilaya_id": 24,
        "code_postal": "2404"
    },
    "1176": {
        "nom": "Ras El Agba",
        "wilaya_id": 24,
        "code_postal": "2408"
    },
    "1194": {
        "nom": "Roknia",
        "wilaya_id": 24,
        "code_postal": "2428"
    },
    "1229": {
        "nom": "Sellaoua Announa",
        "wilaya_id": 24,
        "code_postal": "2429"
    },
    "1323": {
        "nom": "Sidi Sandel",
        "wilaya_id": 24,
        "code_postal": "2407"
    },
    "1402": {
        "nom": "Tamlouka",
        "wilaya_id": 24,
        "code_postal": "2405"
    },
    "18": {
        "nom": "Ain Abid",
        "wilaya_id": 25,
        "code_postal": "2507"
    },
    "104": {
        "nom": "Ain Smara",
        "wilaya_id": 25,
        "code_postal": "2510"
    },
    "228": {
        "nom": "Ben Badis",
        "wilaya_id": 25,
        "code_postal": "2503"
    },
    "259": {
        "nom": "Beni Hamidene",
        "wilaya_id": 25,
        "code_postal": "2508"
    },
    "475": {
        "nom": "Constantine",
        "wilaya_id": 25,
        "code_postal": "2501"
    },
    "502": {
        "nom": "Didouche Mourad",
        "wilaya_id": 25,
        "code_postal": "2505"
    },
    "631": {
        "nom": "El Khroub",
        "wilaya_id": 25,
        "code_postal": "2506"
    },
    "747": {
        "nom": "Hamma Bouziane",
        "wilaya_id": 25,
        "code_postal": "2502"
    },
    "799": {
        "nom": "Ibn Ziad",
        "wilaya_id": 25,
        "code_postal": "2512"
    },
    "980": {
        "nom": "Messaoud Boujeriou",
        "wilaya_id": 25,
        "code_postal": "2511"
    },
    "1130": {
        "nom": "Ouled Rahmouni",
        "wilaya_id": 25,
        "code_postal": "2509"
    },
    "1535": {
        "nom": "Zighoud Youcef",
        "wilaya_id": 25,
        "code_postal": "2504"
    },
    "35": {
        "nom": "Ain Boucif",
        "wilaya_id": 26,
        "code_postal": "2604"
    },
    "91": {
        "nom": "Ain Ouksir",
        "wilaya_id": 26,
        "code_postal": "2641"
    },
    "134": {
        "nom": "Aissaouia",
        "wilaya_id": 26,
        "code_postal": "2605"
    },
    "186": {
        "nom": "Aziz",
        "wilaya_id": 26,
        "code_postal": "2632"
    },
    "188": {
        "nom": "Baata",
        "wilaya_id": 26,
        "code_postal": "2624"
    },
    "229": {
        "nom": "Ben Chicao",
        "wilaya_id": 26,
        "code_postal": "2630"
    },
    "280": {
        "nom": "Beni Slimane",
        "wilaya_id": 26,
        "code_postal": "2646"
    },
    "301": {
        "nom": "Berrouaghia",
        "wilaya_id": 26,
        "code_postal": "2647"
    },
    "306": {
        "nom": "Bir Ben Laabed",
        "wilaya_id": 26,
        "code_postal": "2656"
    },
    "328": {
        "nom": "Boghar",
        "wilaya_id": 26,
        "code_postal": "2625"
    },
    "354": {
        "nom": "Bouaiche",
        "wilaya_id": 26,
        "code_postal": "2610"
    },
    "355": {
        "nom": "Bouaichoune",
        "wilaya_id": 26,
        "code_postal": "2659"
    },
    "363": {
        "nom": "Bouchrahil",
        "wilaya_id": 26,
        "code_postal": "2621"
    },
    "377": {
        "nom": "Boughzoul",
        "wilaya_id": 26,
        "code_postal": "2651"
    },
    "411": {
        "nom": "Bouskene",
        "wilaya_id": 26,
        "code_postal": "2619"
    },
    "432": {
        "nom": "Chabounia",
        "wilaya_id": 26,
        "code_postal": "2638"
    },
    "444": {
        "nom": "Chelalet El Adhaoura",
        "wilaya_id": 26,
        "code_postal": "2618"
    },
    "452": {
        "nom": "Cheniguel",
        "wilaya_id": 26,
        "code_postal": "2640"
    },
    "480": {
        "nom": "Damiat",
        "wilaya_id": 26,
        "code_postal": "2613"
    },
    "496": {
        "nom": "Derrag",
        "wilaya_id": 26,
        "code_postal": "2608"
    },
    "498": {
        "nom": "Deux Bassins",
        "wilaya_id": 26,
        "code_postal": "2653"
    },
    "531": {
        "nom": "Djouab",
        "wilaya_id": 26,
        "code_postal": "2637"
    },
    "541": {
        "nom": "Draa Essamar",
        "wilaya_id": 26,
        "code_postal": "2654"
    },
    "569": {
        "nom": "El Azizia",
        "wilaya_id": 26,
        "code_postal": "2636"
    },
    "594": {
        "nom": "El Guelbelkebir",
        "wilaya_id": 26,
        "code_postal": "2609"
    },
    "608": {
        "nom": "El Hamdania",
        "wilaya_id": 26,
        "code_postal": "2616"
    },
    "662": {
        "nom": "El Omaria",
        "wilaya_id": 26,
        "code_postal": "2607"
    },
    "666": {
        "nom": "El Ouinet",
        "wilaya_id": 26,
        "code_postal": "2657"
    },
    "763": {
        "nom": "Hannacha",
        "wilaya_id": 26,
        "code_postal": "2660"
    },
    "829": {
        "nom": "Kef Lakhdar",
        "wilaya_id": 26,
        "code_postal": "2617"
    },
    "836": {
        "nom": "Khams Djouamaa",
        "wilaya_id": 26,
        "code_postal": "2663"
    },
    "866": {
        "nom": "Ksar El Boukhari",
        "wilaya_id": 26,
        "code_postal": "2635"
    },
    "921": {
        "nom": "Maghraoua",
        "wilaya_id": 26,
        "code_postal": "2639"
    },
    "947": {
        "nom": "Medea",
        "wilaya_id": 26,
        "code_postal": "2601"
    },
    "950": {
        "nom": "Medjebar",
        "wilaya_id": 26,
        "code_postal": "2662"
    },
    "957": {
        "nom": "Meftaha",
        "wilaya_id": 26,
        "code_postal": "2649"
    },
    "987": {
        "nom": "Mezerana",
        "wilaya_id": 26,
        "code_postal": "2611"
    },
    "991": {
        "nom": "Mihoub",
        "wilaya_id": 26,
        "code_postal": "2650"
    },
    "1033": {
        "nom": "Ouamri",
        "wilaya_id": 26,
        "code_postal": "2643"
    },
    "1061": {
        "nom": "Oued Harbil",
        "wilaya_id": 26,
        "code_postal": "2629"
    },
    "1092": {
        "nom": "Ouled Antar",
        "wilaya_id": 26,
        "code_postal": "2658"
    },
    "1097": {
        "nom": "Ouled Bouachra",
        "wilaya_id": 26,
        "code_postal": "2627"
    },
    "1102": {
        "nom": "Ouled Brahim",
        "wilaya_id": 26,
        "code_postal": "2612"
    },
    "1105": {
        "nom": "Ouled Deid",
        "wilaya_id": 26,
        "code_postal": "2606"
    },
    "1116": {
        "nom": "Ouled Hellal",
        "wilaya_id": 26,
        "code_postal": "2622"
    },
    "1122": {
        "nom": "Ouled Maaref",
        "wilaya_id": 26,
        "code_postal": "2603"
    },
    "1154": {
        "nom": "Oum El Djellil",
        "wilaya_id": 26,
        "code_postal": "2642"
    },
    "1163": {
        "nom": "Ouzera",
        "wilaya_id": 26,
        "code_postal": "2602"
    },
    "1182": {
        "nom": "Rebaia",
        "wilaya_id": 26,
        "code_postal": "2620"
    },
    "1209": {
        "nom": "Saneg",
        "wilaya_id": 26,
        "code_postal": "2664"
    },
    "1222": {
        "nom": "Sedraya",
        "wilaya_id": 26,
        "code_postal": "2661"
    },
    "1225": {
        "nom": "Seghouane",
        "wilaya_id": 26,
        "code_postal": "2648"
    },
    "1243": {
        "nom": "Si Mahdjoub",
        "wilaya_id": 26,
        "code_postal": "2644"
    },
    "1284": {
        "nom": "Sidi Demed",
        "wilaya_id": 26,
        "code_postal": "2631"
    },
    "1316": {
        "nom": "Sidi Naamane",
        "wilaya_id": 26,
        "code_postal": "2626"
    },
    "1319": {
        "nom": "Sidi Rabie",
        "wilaya_id": 26,
        "code_postal": "2655"
    },
    "1330": {
        "nom": "Sidi Zahar",
        "wilaya_id": 26,
        "code_postal": "2628"
    },
    "1331": {
        "nom": "Sidi Ziane",
        "wilaya_id": 26,
        "code_postal": "2614"
    },
    "1340": {
        "nom": "Souagui",
        "wilaya_id": 26,
        "code_postal": "2633"
    },
    "1368": {
        "nom": "Tablat",
        "wilaya_id": 26,
        "code_postal": "2652"
    },
    "1379": {
        "nom": "Tafraout",
        "wilaya_id": 26,
        "code_postal": "2623"
    },
    "1400": {
        "nom": "Tamesguida",
        "wilaya_id": 26,
        "code_postal": "2615"
    },
    "1494": {
        "nom": "Tletat Ed Douair",
        "wilaya_id": 26,
        "code_postal": "2645"
    },
    "1541": {
        "nom": "Zoubiria",
        "wilaya_id": 26,
        "code_postal": "2634"
    },
    "4": {
        "nom": "Achaacha",
        "wilaya_id": 27,
        "code_postal": "2717"
    },
    "36": {
        "nom": "Ain Boudinar",
        "wilaya_id": 27,
        "code_postal": "2728"
    },
    "90": {
        "nom": "Ain Nouissy",
        "wilaya_id": 27,
        "code_postal": "2705"
    },
    "103": {
        "nom": "Ain Sidi Cherif",
        "wilaya_id": 27,
        "code_postal": "2721"
    },
    "113": {
        "nom": "Ain Tedles",
        "wilaya_id": 27,
        "code_postal": "2707"
    },
    "237": {
        "nom": "Benabdelmalek Ramdane",
        "wilaya_id": 27,
        "code_postal": "2713"
    },
    "380": {
        "nom": "Bouguirat",
        "wilaya_id": 27,
        "code_postal": "2719"
    },
    "695": {
        "nom": "Fornaka",
        "wilaya_id": 27,
        "code_postal": "2703"
    },
    "736": {
        "nom": "Hadjadj",
        "wilaya_id": 27,
        "code_postal": "2714"
    },
    "783": {
        "nom": "Hassi Mameche",
        "wilaya_id": 27,
        "code_postal": "2706"
    },
    "788": {
        "nom": "Hassiane",
        "wilaya_id": 27,
        "code_postal": "2732"
    },
    "834": {
        "nom": "Khadra",
        "wilaya_id": 27,
        "code_postal": "2718"
    },
    "838": {
        "nom": "Kheir Eddine",
        "wilaya_id": 27,
        "code_postal": "2711"
    },
    "933": {
        "nom": "Mansourah",
        "wilaya_id": 27,
        "code_postal": "2723"
    },
    "941": {
        "nom": "Mazagran",
        "wilaya_id": 27,
        "code_postal": "2727"
    },
    "978": {
        "nom": "Mesra",
        "wilaya_id": 27,
        "code_postal": "2722"
    },
    "1005": {
        "nom": "Mostaganem",
        "wilaya_id": 27,
        "code_postal": "2701"
    },
    "1025": {
        "nom": "Nekmaria",
        "wilaya_id": 27,
        "code_postal": "2715"
    },
    "1053": {
        "nom": "Oued El Kheir",
        "wilaya_id": 27,
        "code_postal": "2709"
    },
    "1099": {
        "nom": "Ouled Boughalem",
        "wilaya_id": 27,
        "code_postal": "2725"
    },
    "1121": {
        "nom": "Ouled Maalah",
        "wilaya_id": 27,
        "code_postal": "2726"
    },
    "1203": {
        "nom": "Safsaf",
        "wilaya_id": 27,
        "code_postal": "2730"
    },
    "1210": {
        "nom": "Sayada",
        "wilaya_id": 27,
        "code_postal": "2702"
    },
    "1256": {
        "nom": "Sidi Ali",
        "wilaya_id": 27,
        "code_postal": "2712"
    },
    "1271": {
        "nom": "Sidi Belaattar",
        "wilaya_id": 27,
        "code_postal": "2710"
    },
    "1301": {
        "nom": "Sidi Lakhdar",
        "wilaya_id": 27,
        "code_postal": "2716"
    },
    "1334": {
        "nom": "Sirat",
        "wilaya_id": 27,
        "code_postal": "2720"
    },
    "1339": {
        "nom": "Souaflia",
        "wilaya_id": 27,
        "code_postal": "2724"
    },
    "1359": {
        "nom": "Sour",
        "wilaya_id": 27,
        "code_postal": "2708"
    },
    "1362": {
        "nom": "Stidia",
        "wilaya_id": 27,
        "code_postal": "2704"
    },
    "1423": {
        "nom": "Tazgait",
        "wilaya_id": 27,
        "code_postal": "2729"
    },
    "1496": {
        "nom": "Touahria",
        "wilaya_id": 27,
        "code_postal": "2731"
    },
    "51": {
        "nom": "Ain El Hadjel",
        "wilaya_id": 28,
        "code_postal": "2817"
    },
    "55": {
        "nom": "Ain El Melh",
        "wilaya_id": 28,
        "code_postal": "2841"
    },
    "57": {
        "nom": "Ain Fares",
        "wilaya_id": 28,
        "code_postal": "2837"
    },
    "75": {
        "nom": "Ain Khadra",
        "wilaya_id": 28,
        "code_postal": "2813"
    },
    "96": {
        "nom": "Ain Rich",
        "wilaya_id": 28,
        "code_postal": "2844"
    },
    "219": {
        "nom": "Belaiba",
        "wilaya_id": 28,
        "code_postal": "2815"
    },
    "236": {
        "nom": "Ben Srour",
        "wilaya_id": 28,
        "code_postal": "2824"
    },
    "262": {
        "nom": "Beni Ilmane",
        "wilaya_id": 28,
        "code_postal": "2845"
    },
    "295": {
        "nom": "Benzouh",
        "wilaya_id": 28,
        "code_postal": "2835"
    },
    "296": {
        "nom": "Berhoum",
        "wilaya_id": 28,
        "code_postal": "2812"
    },
    "314": {
        "nom": "Bir Foda",
        "wilaya_id": 28,
        "code_postal": "2836"
    },
    "353": {
        "nom": "Bou Saada",
        "wilaya_id": 28,
        "code_postal": "2820"
    },
    "417": {
        "nom": "Bouti Sayeh",
        "wilaya_id": 28,
        "code_postal": "2831"
    },
    "447": {
        "nom": "Chellal",
        "wilaya_id": 28,
        "code_postal": "2809"
    },
    "490": {
        "nom": "Dehahna",
        "wilaya_id": 28,
        "code_postal": "2830"
    },
    "513": {
        "nom": "Djebel Messaad",
        "wilaya_id": 28,
        "code_postal": "2847"
    },
    "609": {
        "nom": "El Hamel",
        "wilaya_id": 28,
        "code_postal": "2827"
    },
    "618": {
        "nom": "El Houamed",
        "wilaya_id": 28,
        "code_postal": "2826"
    },
    "751": {
        "nom": "Hammam Dalaa",
        "wilaya_id": 28,
        "code_postal": "2803"
    },
    "851": {
        "nom": "Khettouti Sed El Jir",
        "wilaya_id": 28,
        "code_postal": "2832"
    },
    "855": {
        "nom": "Khoubana",
        "wilaya_id": 28,
        "code_postal": "2807"
    },
    "900": {
        "nom": "M'cif",
        "wilaya_id": 28,
        "code_postal": "2808"
    },
    "906": {
        "nom": "M'sila",
        "wilaya_id": 28,
        "code_postal": "2801"
    },
    "907": {
        "nom": "M'tarfa",
        "wilaya_id": 28,
        "code_postal": "2806"
    },
    "910": {
        "nom": "Maadid",
        "wilaya_id": 28,
        "code_postal": "2802"
    },
    "916": {
        "nom": "Maarif",
        "wilaya_id": 28,
        "code_postal": "2829"
    },
    "922": {
        "nom": "Magra",
        "wilaya_id": 28,
        "code_postal": "2811"
    },
    "951": {
        "nom": "Medjedel",
        "wilaya_id": 28,
        "code_postal": "2842"
    },
    "967": {
        "nom": "Menaa",
        "wilaya_id": 28,
        "code_postal": "2839"
    },
    "1001": {
        "nom": "Mohamed Boudiaf",
        "wilaya_id": 28,
        "code_postal": "2834"
    },
    "1034": {
        "nom": "Ouanougha",
        "wilaya_id": 28,
        "code_postal": "2819"
    },
    "1085": {
        "nom": "Ouled Addi Guebala",
        "wilaya_id": 28,
        "code_postal": "2814"
    },
    "1106": {
        "nom": "Ouled Derradj",
        "wilaya_id": 28,
        "code_postal": "2804"
    },
    "1123": {
        "nom": "Ouled Madhi",
        "wilaya_id": 28,
        "code_postal": "2810"
    },
    "1124": {
        "nom": "Ouled Mansour",
        "wilaya_id": 28,
        "code_postal": "2828"
    },
    "1138": {
        "nom": "Ouled Sidi Brahim",
        "wilaya_id": 28,
        "code_postal": "2821"
    },
    "1142": {
        "nom": "Ouled Slimane",
        "wilaya_id": 28,
        "code_postal": "2825"
    },
    "1148": {
        "nom": "Oulteme",
        "wilaya_id": 28,
        "code_postal": "2846"
    },
    "1254": {
        "nom": "Sidi Aissa",
        "wilaya_id": 28,
        "code_postal": "2816"
    },
    "1263": {
        "nom": "Sidi Ameur",
        "wilaya_id": 28,
        "code_postal": "2822"
    },
    "1289": {
        "nom": "Sidi Hadjeres",
        "wilaya_id": 28,
        "code_postal": "2818"
    },
    "1306": {
        "nom": "Sidi M'hamed",
        "wilaya_id": 28,
        "code_postal": "2838"
    },
    "1336": {
        "nom": "Slim",
        "wilaya_id": 28,
        "code_postal": "2843"
    },
    "1343": {
        "nom": "Souamaa",
        "wilaya_id": 28,
        "code_postal": "2840"
    },
    "1405": {
        "nom": "Tamsa",
        "wilaya_id": 28,
        "code_postal": "2823"
    },
    "1418": {
        "nom": "Tarmount",
        "wilaya_id": 28,
        "code_postal": "2805"
    },
    "1519": {
        "nom": "Zarzour",
        "wilaya_id": 28,
        "code_postal": "2833"
    },
    "58": {
        "nom": "Ain Fares",
        "wilaya_id": 29,
        "code_postal": "2924"
    },
    "59": {
        "nom": "Ain Fekan",
        "wilaya_id": 29,
        "code_postal": "2918"
    },
    "62": {
        "nom": "Ain Ferah",
        "wilaya_id": 29,
        "code_postal": "2911"
    },
    "65": {
        "nom": "Ain Frass",
        "wilaya_id": 29,
        "code_postal": "2925"
    },
    "155": {
        "nom": "Alaimia",
        "wilaya_id": 29,
        "code_postal": "2928"
    },
    "171": {
        "nom": "Aouf",
        "wilaya_id": 29,
        "code_postal": "2923"
    },
    "289": {
        "nom": "Benian",
        "wilaya_id": 29,
        "code_postal": "2919"
    },
    "351": {
        "nom": "Bou Henni",
        "wilaya_id": 29,
        "code_postal": "2937"
    },
    "384": {
        "nom": "Bouhanifia",
        "wilaya_id": 29,
        "code_postal": "2902"
    },
    "471": {
        "nom": "Chorfa",
        "wilaya_id": 29,
        "code_postal": "2943"
    },
    "576": {
        "nom": "El Bordj",
        "wilaya_id": 29,
        "code_postal": "2917"
    },
    "586": {
        "nom": "El Gaada",
        "wilaya_id": 29,
        "code_postal": "2929"
    },
    "589": {
        "nom": "El Ghomri",
        "wilaya_id": 29,
        "code_postal": "2934"
    },
    "593": {
        "nom": "El Gueitena",
        "wilaya_id": 29,
        "code_postal": "2938"
    },
    "599": {
        "nom": "El Hachem",
        "wilaya_id": 29,
        "code_postal": "2907"
    },
    "626": {
        "nom": "El Keurt",
        "wilaya_id": 29,
        "code_postal": "2940"
    },
    "644": {
        "nom": "El Mamounia",
        "wilaya_id": 29,
        "code_postal": "2939"
    },
    "650": {
        "nom": "El Menaouer",
        "wilaya_id": 29,
        "code_postal": "2921"
    },
    "690": {
        "nom": "Ferraguig",
        "wilaya_id": 29,
        "code_postal": "2933"
    },
    "702": {
        "nom": "Froha",
        "wilaya_id": 29,
        "code_postal": "2913"
    },
    "705": {
        "nom": "Gharrous",
        "wilaya_id": 29,
        "code_postal": "2941"
    },
    "711": {
        "nom": "Ghriss",
        "wilaya_id": 29,
        "code_postal": "2912"
    },
    "722": {
        "nom": "Guerdjoum",
        "wilaya_id": 29,
        "code_postal": "2942"
    },
    "731": {
        "nom": "Hacine",
        "wilaya_id": 29,
        "code_postal": "2904"
    },
    "835": {
        "nom": "Khalouia",
        "wilaya_id": 29,
        "code_postal": "2920"
    },
    "926": {
        "nom": "Makhda",
        "wilaya_id": 29,
        "code_postal": "2915"
    },
    "935": {
        "nom": "Maoussa",
        "wilaya_id": 29,
        "code_postal": "2905"
    },
    "939": {
        "nom": "Mascara",
        "wilaya_id": 29,
        "code_postal": "2901"
    },
    "940": {
        "nom": "Matemore",
        "wilaya_id": 29,
        "code_postal": "2914"
    },
    "997": {
        "nom": "Mocta Douz",
        "wilaya_id": 29,
        "code_postal": "2936"
    },
    "1003": {
        "nom": "Mohammadia",
        "wilaya_id": 29,
        "code_postal": "2931"
    },
    "1026": {
        "nom": "Nesmot",
        "wilaya_id": 29,
        "code_postal": "2945"
    },
    "1028": {
        "nom": "Oggaz",
        "wilaya_id": 29,
        "code_postal": "2927"
    },
    "1046": {
        "nom": "Oued El Abtal",
        "wilaya_id": 29,
        "code_postal": "2910"
    },
    "1077": {
        "nom": "Oued Taria",
        "wilaya_id": 29,
        "code_postal": "2922"
    },
    "1177": {
        "nom": "Ras El Ain Amirouche",
        "wilaya_id": 29,
        "code_postal": "2944"
    },
    "1220": {
        "nom": "Sedjerara",
        "wilaya_id": 29,
        "code_postal": "2935"
    },
    "1226": {
        "nom": "Sehailia",
        "wilaya_id": 29,
        "code_postal": "2947"
    },
    "1246": {
        "nom": "Sidi Abdeldjebar",
        "wilaya_id": 29,
        "code_postal": "2946"
    },
    "1248": {
        "nom": "Sidi Abdelmoumene",
        "wilaya_id": 29,
        "code_postal": "2932"
    },
    "1276": {
        "nom": "Sidi Boussaid",
        "wilaya_id": 29,
        "code_postal": "2916"
    },
    "1292": {
        "nom": "Sidi Kada",
        "wilaya_id": 29,
        "code_postal": "2908"
    },
    "1332": {
        "nom": "Sig",
        "wilaya_id": 29,
        "code_postal": "2926"
    },
    "1463": {
        "nom": "Tighennif",
        "wilaya_id": 29,
        "code_postal": "2906"
    },
    "1486": {
        "nom": "Tizi",
        "wilaya_id": 29,
        "code_postal": "2903"
    },
    "1515": {
        "nom": "Zahana",
        "wilaya_id": 29,
        "code_postal": "2930"
    },
    "1524": {
        "nom": "Zelamta",
        "wilaya_id": 29,
        "code_postal": "2909"
    },
    "25": {
        "nom": "Ain Beida",
        "wilaya_id": 30,
        "code_postal": "3002"
    },
    "577": {
        "nom": "El Borma",
        "wilaya_id": 30,
        "code_postal": "3021"
    },
    "772": {
        "nom": "Hassi Ben Abdellah",
        "wilaya_id": 30,
        "code_postal": "3012"
    },
    "785": {
        "nom": "Hassi Messaoud",
        "wilaya_id": 30,
        "code_postal": "3004"
    },
    "1015": {
        "nom": "N'goussa",
        "wilaya_id": 30,
        "code_postal": "3003"
    },
    "1035": {
        "nom": "Ouargla",
        "wilaya_id": 30,
        "code_postal": "3001"
    },
    "1199": {
        "nom": "Rouissat",
        "wilaya_id": 30,
        "code_postal": "3005"
    },
    "1298": {
        "nom": "Sidi Khouiled",
        "wilaya_id": 30,
        "code_postal": "3011"
    },
    "33": {
        "nom": "Ain Biya",
        "wilaya_id": 31,
        "code_postal": "3126"
    },
    "72": {
        "nom": "Ain Kerma",
        "wilaya_id": 31,
        "code_postal": "3125"
    },
    "124": {
        "nom": "Ain Turk",
        "wilaya_id": 31,
        "code_postal": "3109"
    },
    "177": {
        "nom": "Arzew",
        "wilaya_id": 31,
        "code_postal": "3106"
    },
    "233": {
        "nom": "Ben Freha",
        "wilaya_id": 31,
        "code_postal": "3120"
    },
    "304": {
        "nom": "Bethioua",
        "wilaya_id": 31,
        "code_postal": "3107"
    },
    "312": {
        "nom": "Bir El Djir",
        "wilaya_id": 31,
        "code_postal": "3103"
    },
    "373": {
        "nom": "Boufatis",
        "wilaya_id": 31,
        "code_postal": "3114"
    },
    "410": {
        "nom": "Bousfer",
        "wilaya_id": 31,
        "code_postal": "3116"
    },
    "418": {
        "nom": "Boutlelis",
        "wilaya_id": 31,
        "code_postal": "3124"
    },
    "558": {
        "nom": "El Ancar",
        "wilaya_id": 31,
        "code_postal": "3110"
    },
    "579": {
        "nom": "El Braya",
        "wilaya_id": 31,
        "code_postal": "3118"
    },
    "625": {
        "nom": "El Kerma",
        "wilaya_id": 31,
        "code_postal": "3117"
    },
    "680": {
        "nom": "Es Senia",
        "wilaya_id": 31,
        "code_postal": "3105"
    },
    "703": {
        "nom": "Gdyel",
        "wilaya_id": 31,
        "code_postal": "3102"
    },
    "773": {
        "nom": "Hassi Ben Okba",
        "wilaya_id": 31,
        "code_postal": "3119"
    },
    "774": {
        "nom": "Hassi Bounif",
        "wilaya_id": 31,
        "code_postal": "3104"
    },
    "784": {
        "nom": "Hassi Mefsoukh",
        "wilaya_id": 31,
        "code_postal": "3121"
    },
    "938": {
        "nom": "Marsat El Hadjadj",
        "wilaya_id": 31,
        "code_postal": "3108"
    },
    "976": {
        "nom": "Mers El Kebir",
        "wilaya_id": 31,
        "code_postal": "3115"
    },
    "982": {
        "nom": "Messerghin",
        "wilaya_id": 31,
        "code_postal": "3123"
    },
    "1029": {
        "nom": "Oran",
        "wilaya_id": 31,
        "code_postal": "3101"
    },
    "1078": {
        "nom": "Oued Tlelat",
        "wilaya_id": 31,
        "code_postal": "3111"
    },
    "1273": {
        "nom": "Sidi Ben Yebka",
        "wilaya_id": 31,
        "code_postal": "3122"
    },
    "1281": {
        "nom": "Sidi Chami",
        "wilaya_id": 31,
        "code_postal": "3113"
    },
    "1378": {
        "nom": "Tafraoui",
        "wilaya_id": 31,
        "code_postal": "3112"
    },
    "56": {
        "nom": "Ain El Orak",
        "wilaya_id": 32,
        "code_postal": "3208"
    },
    "174": {
        "nom": "Arbaouat",
        "wilaya_id": 32,
        "code_postal": "3209"
    },
    "356": {
        "nom": "Boualem",
        "wilaya_id": 32,
        "code_postal": "3206"
    },
    "379": {
        "nom": "Bougtoub",
        "wilaya_id": 32,
        "code_postal": "3210"
    },
    "413": {
        "nom": "Boussemghoun",
        "wilaya_id": 32,
        "code_postal": "3213"
    },
    "427": {
        "nom": "Brezina",
        "wilaya_id": 32,
        "code_postal": "3204"
    },
    "441": {
        "nom": "Cheguig",
        "wilaya_id": 32,
        "code_postal": "3217"
    },
    "448": {
        "nom": "Chellala",
        "wilaya_id": 32,
        "code_postal": "3214"
    },
    "570": {
        "nom": "El Bayadh",
        "wilaya_id": 32,
        "code_postal": "3201"
    },
    "574": {
        "nom": "El Biodh Sidi Cheikh",
        "wilaya_id": 32,
        "code_postal": "3207"
    },
    "575": {
        "nom": "El Bnoud",
        "wilaya_id": 32,
        "code_postal": "3216"
    },
    "629": {
        "nom": "El Kheither",
        "wilaya_id": 32,
        "code_postal": "3211"
    },
    "649": {
        "nom": "El Mehara",
        "wilaya_id": 32,
        "code_postal": "3219"
    },
    "707": {
        "nom": "Ghassoul",
        "wilaya_id": 32,
        "code_postal": "3205"
    },
    "828": {
        "nom": "Kef El Ahmar",
        "wilaya_id": 32,
        "code_postal": "3212"
    },
    "861": {
        "nom": "Krakda",
        "wilaya_id": 32,
        "code_postal": "3215"
    },
    "1193": {
        "nom": "Rogassa",
        "wilaya_id": 32,
        "code_postal": "3202"
    },
    "1264": {
        "nom": "Sidi Ameur",
        "wilaya_id": 32,
        "code_postal": "3218"
    },
    "1325": {
        "nom": "Sidi Slimane",
        "wilaya_id": 32,
        "code_postal": "3221"
    },
    "1328": {
        "nom": "Sidi Tifour",
        "wilaya_id": 32,
        "code_postal": "3222"
    },
    "1364": {
        "nom": "Stitten",
        "wilaya_id": 32,
        "code_postal": "3203"
    },
    "1499": {
        "nom": "Tousmouline",
        "wilaya_id": 32,
        "code_postal": "3220"
    },
    "343": {
        "nom": "Bordj Omar Driss",
        "wilaya_id": 33,
        "code_postal": "3304"
    },
    "487": {
        "nom": "Debdeb",
        "wilaya_id": 33,
        "code_postal": "3303"
    },
    "811": {
        "nom": "Illizi",
        "wilaya_id": 33,
        "code_postal": "3301"
    },
    "814": {
        "nom": "In Amenas",
        "wilaya_id": 33,
        "code_postal": "3306"
    },
    "108": {
        "nom": "Ain Taghrout",
        "wilaya_id": 34,
        "code_postal": "3408"
    },
    "115": {
        "nom": "Ain Tesra",
        "wilaya_id": 34,
        "code_postal": "3430"
    },
    "221": {
        "nom": "Belimour",
        "wilaya_id": 34,
        "code_postal": "3412"
    },
    "231": {
        "nom": "Ben Daoud",
        "wilaya_id": 34,
        "code_postal": "3406"
    },
    "317": {
        "nom": "Bir Kasdali",
        "wilaya_id": 34,
        "code_postal": "3431"
    },
    "333": {
        "nom": "Bordj Bou Arreridj",
        "wilaya_id": 34,
        "code_postal": "3401"
    },
    "340": {
        "nom": "Bordj Ghdir",
        "wilaya_id": 34,
        "code_postal": "3409"
    },
    "346": {
        "nom": "Bordj Zemora",
        "wilaya_id": 34,
        "code_postal": "3403"
    },
    "473": {
        "nom": "Colla",
        "wilaya_id": 34,
        "code_postal": "3425"
    },
    "504": {
        "nom": "Djaafra",
        "wilaya_id": 34,
        "code_postal": "3415"
    },
    "548": {
        "nom": "El Ach",
        "wilaya_id": 34,
        "code_postal": "3427"
    },
    "549": {
        "nom": "El Achir",
        "wilaya_id": 34,
        "code_postal": "3407"
    },
    "560": {
        "nom": "El Anseur",
        "wilaya_id": 34,
        "code_postal": "3428"
    },
    "607": {
        "nom": "El Hamadia",
        "wilaya_id": 34,
        "code_postal": "3411"
    },
    "635": {
        "nom": "El M'hir",
        "wilaya_id": 34,
        "code_postal": "3405"
    },
    "640": {
        "nom": "El Main",
        "wilaya_id": 34,
        "code_postal": "3416"
    },
    "710": {
        "nom": "Ghilassa",
        "wilaya_id": 34,
        "code_postal": "3432"
    },
    "764": {
        "nom": "Haraza",
        "wilaya_id": 34,
        "code_postal": "3434"
    },
    "767": {
        "nom": "Hasnaoua",
        "wilaya_id": 34,
        "code_postal": "3419"
    },
    "839": {
        "nom": "Khelil",
        "wilaya_id": 34,
        "code_postal": "3420"
    },
    "870": {
        "nom": "Ksour",
        "wilaya_id": 34,
        "code_postal": "3422"
    },
    "930": {
        "nom": "Mansoura",
        "wilaya_id": 34,
        "code_postal": "3404"
    },
    "949": {
        "nom": "Medjana",
        "wilaya_id": 34,
        "code_postal": "3413"
    },
    "1100": {
        "nom": "Ouled Brahem",
        "wilaya_id": 34,
        "code_postal": "3417"
    },
    "1104": {
        "nom": "Ouled Dahmane",
        "wilaya_id": 34,
        "code_postal": "3418"
    },
    "1139": {
        "nom": "Ouled Sidi Brahim",
        "wilaya_id": 34,
        "code_postal": "3423"
    },
    "1165": {
        "nom": "Rabta",
        "wilaya_id": 34,
        "code_postal": "3433"
    },
    "1181": {
        "nom": "Ras El Oued",
        "wilaya_id": 34,
        "code_postal": "3402"
    },
    "1286": {
        "nom": "Sidi Embarek",
        "wilaya_id": 34,
        "code_postal": "3410"
    },
    "1380": {
        "nom": "Tafreg",
        "wilaya_id": 34,
        "code_postal": "3424"
    },
    "1385": {
        "nom": "Taglait",
        "wilaya_id": 34,
        "code_postal": "3421"
    },
    "1438": {
        "nom": "Teniet En Nasr",
        "wilaya_id": 34,
        "code_postal": "3414"
    },
    "1444": {
        "nom": "Tesmart",
        "wilaya_id": 34,
        "code_postal": "3429"
    },
    "1485": {
        "nom": "Tixter",
        "wilaya_id": 34,
        "code_postal": "3426"
    },
    "7": {
        "nom": "Afir",
        "wilaya_id": 35,
        "code_postal": "3503"
    },
    "162": {
        "nom": "Ammal",
        "wilaya_id": 35,
        "code_postal": "3524"
    },
    "198": {
        "nom": "Baghlia",
        "wilaya_id": 35,
        "code_postal": "3505"
    },
    "230": {
        "nom": "Ben Choud",
        "wilaya_id": 35,
        "code_postal": "3522"
    },
    "246": {
        "nom": "Beni Amrane",
        "wilaya_id": 35,
        "code_postal": "3525"
    },
    "341": {
        "nom": "Bordj Menaiel",
        "wilaya_id": 35,
        "code_postal": "3504"
    },
    "369": {
        "nom": "Boudouaou",
        "wilaya_id": 35,
        "code_postal": "3502"
    },
    "370": {
        "nom": "Boudouaou El Bahri",
        "wilaya_id": 35,
        "code_postal": "3527"
    },
    "402": {
        "nom": "Boumerdes",
        "wilaya_id": 35,
        "code_postal": "3501"
    },
    "423": {
        "nom": "Bouzegza Keddara",
        "wilaya_id": 35,
        "code_postal": "3519"
    },
    "431": {
        "nom": "Chabet El Ameur",
        "wilaya_id": 35,
        "code_postal": "3513"
    },
    "476": {
        "nom": "Corso",
        "wilaya_id": 35,
        "code_postal": "3516"
    },
    "494": {
        "nom": "Dellys",
        "wilaya_id": 35,
        "code_postal": "3523"
    },
    "530": {
        "nom": "Djinet",
        "wilaya_id": 35,
        "code_postal": "3508"
    },
    "628": {
        "nom": "El Kharrouba",
        "wilaya_id": 35,
        "code_postal": "3532"
    },
    "757": {
        "nom": "Hammedi",
        "wilaya_id": 35,
        "code_postal": "3530"
    },
    "821": {
        "nom": "Isser",
        "wilaya_id": 35,
        "code_postal": "3509"
    },
    "840": {
        "nom": "Khemis El Khechna",
        "wilaya_id": 35,
        "code_postal": "3531"
    },
    "883": {
        "nom": "Larbatache",
        "wilaya_id": 35,
        "code_postal": "3518"
    },
    "890": {
        "nom": "Leghata",
        "wilaya_id": 35,
        "code_postal": "3529"
    },
    "1017": {
        "nom": "Naciria",
        "wilaya_id": 35,
        "code_postal": "3507"
    },
    "1089": {
        "nom": "Ouled Aissa",
        "wilaya_id": 35,
        "code_postal": "3521"
    },
    "1115": {
        "nom": "Ouled Hedadj",
        "wilaya_id": 35,
        "code_postal": "3528"
    },
    "1127": {
        "nom": "Ouled Moussa",
        "wilaya_id": 35,
        "code_postal": "3517"
    },
    "1244": {
        "nom": "Si Mustapha",
        "wilaya_id": 35,
        "code_postal": "3511"
    },
    "1283": {
        "nom": "Sidi Daoud",
        "wilaya_id": 35,
        "code_postal": "3506"
    },
    "1350": {
        "nom": "Souk El Haad",
        "wilaya_id": 35,
        "code_postal": "3526"
    },
    "1413": {
        "nom": "Taourga",
        "wilaya_id": 35,
        "code_postal": "3520"
    },
    "1449": {
        "nom": "Thenia",
        "wilaya_id": 35,
        "code_postal": "3514"
    },
    "1458": {
        "nom": "Tidjelabine",
        "wilaya_id": 35,
        "code_postal": "3512"
    },
    "1469": {
        "nom": "Timezrit",
        "wilaya_id": 35,
        "code_postal": "3515"
    },
    "1527": {
        "nom": "Zemmouri",
        "wilaya_id": 35,
        "code_postal": "3510"
    },
    "46": {
        "nom": "Ain El Assel",
        "wilaya_id": 36,
        "code_postal": "3606"
    },
    "73": {
        "nom": "Ain Kerma",
        "wilaya_id": 36,
        "code_postal": "3621"
    },
    "178": {
        "nom": "Asfour",
        "wilaya_id": 36,
        "code_postal": "3617"
    },
    "235": {
        "nom": "Ben M Hidi",
        "wilaya_id": 36,
        "code_postal": "3603"
    },
    "300": {
        "nom": "Berrihane",
        "wilaya_id": 36,
        "code_postal": "3610"
    },
    "302": {
        "nom": "Besbes",
        "wilaya_id": 36,
        "code_postal": "3616"
    },
    "378": {
        "nom": "Bougous",
        "wilaya_id": 36,
        "code_postal": "3604"
    },
    "381": {
        "nom": "Bouhadjar",
        "wilaya_id": 36,
        "code_postal": "3602"
    },
    "416": {
        "nom": "Bouteldja",
        "wilaya_id": 36,
        "code_postal": "3608"
    },
    "438": {
        "nom": "Chebaita Mokhtar",
        "wilaya_id": 36,
        "code_postal": "3615"
    },
    "440": {
        "nom": "Chefia",
        "wilaya_id": 36,
        "code_postal": "3612"
    },
    "467": {
        "nom": "Chihani",
        "wilaya_id": 36,
        "code_postal": "3614"
    },
    "545": {
        "nom": "Drean",
        "wilaya_id": 36,
        "code_postal": "3613"
    },
    "546": {
        "nom": "Echatt",
        "wilaya_id": 36,
        "code_postal": "3618"
    },
    "553": {
        "nom": "El Aioun",
        "wilaya_id": 36,
        "code_postal": "3607"
    },
    "621": {
        "nom": "El Kala",
        "wilaya_id": 36,
        "code_postal": "3605"
    },
    "671": {
        "nom": "El Tarf",
        "wilaya_id": 36,
        "code_postal": "3601"
    },
    "748": {
        "nom": "Hammam Beni Salah",
        "wilaya_id": 36,
        "code_postal": "3623"
    },
    "872": {
        "nom": "Lac Des Oiseaux",
        "wilaya_id": 36,
        "code_postal": "3611"
    },
    "1081": {
        "nom": "Oued Zitoun",
        "wilaya_id": 36,
        "code_postal": "3622"
    },
    "1174": {
        "nom": "Raml Souk",
        "wilaya_id": 36,
        "code_postal": "3624"
    },
    "1345": {
        "nom": "Souarekh",
        "wilaya_id": 36,
        "code_postal": "3609"
    },
    "1532": {
        "nom": "Zerizer",
        "wilaya_id": 36,
        "code_postal": "3619"
    },
    "1537": {
        "nom": "Zitouna",
        "wilaya_id": 36,
        "code_postal": "3620"
    },
    "1152": {
        "nom": "Oum El Assel",
        "wilaya_id": 37,
        "code_postal": "3702"
    },
    "1476": {
        "nom": "Tindouf",
        "wilaya_id": 37,
        "code_postal": "3701"
    },
    "163": {
        "nom": "Ammari",
        "wilaya_id": 38,
        "code_postal": "3813"
    },
    "252": {
        "nom": "Beni Chaib",
        "wilaya_id": 38,
        "code_postal": "3805"
    },
    "265": {
        "nom": "Beni Lahcene",
        "wilaya_id": 38,
        "code_postal": "3822"
    },
    "334": {
        "nom": "Bordj Bounaama",
        "wilaya_id": 38,
        "code_postal": "3802"
    },
    "336": {
        "nom": "Bordj El Emir Abdelkader",
        "wilaya_id": 38,
        "code_postal": "3809"
    },
    "347": {
        "nom": "Bou Caid",
        "wilaya_id": 38,
        "code_postal": "3821"
    },
    "843": {
        "nom": "Khemisti",
        "wilaya_id": 38,
        "code_postal": "3811"
    },
    "881": {
        "nom": "Larbaa",
        "wilaya_id": 38,
        "code_postal": "3816"
    },
    "884": {
        "nom": "Lardjem",
        "wilaya_id": 38,
        "code_postal": "3806"
    },
    "886": {
        "nom": "Layoune",
        "wilaya_id": 38,
        "code_postal": "3810"
    },
    "887": {
        "nom": "Lazharia",
        "wilaya_id": 38,
        "code_postal": "3804"
    },
    "909": {
        "nom": "Maacem",
        "wilaya_id": 38,
        "code_postal": "3817"
    },
    "963": {
        "nom": "Melaab",
        "wilaya_id": 38,
        "code_postal": "3807"
    },
    "1096": {
        "nom": "Ouled Bessem",
        "wilaya_id": 38,
        "code_postal": "3812"
    },
    "1251": {
        "nom": "Sidi Abed",
        "wilaya_id": 38,
        "code_postal": "3818"
    },
    "1277": {
        "nom": "Sidi Boutouchent",
        "wilaya_id": 38,
        "code_postal": "3815"
    },
    "1303": {
        "nom": "Sidi Lantri",
        "wilaya_id": 38,
        "code_postal": "3808"
    },
    "1326": {
        "nom": "Sidi Slimane",
        "wilaya_id": 38,
        "code_postal": "3820"
    },
    "1399": {
        "nom": "Tamellalet",
        "wilaya_id": 38,
        "code_postal": "3819"
    },
    "1450": {
        "nom": "Theniet El Had",
        "wilaya_id": 38,
        "code_postal": "3803"
    },
    "1483": {
        "nom": "Tissemsilt",
        "wilaya_id": 38,
        "code_postal": "3801"
    },
    "1510": {
        "nom": "Youssoufia",
        "wilaya_id": 38,
        "code_postal": "3814"
    },
    "206": {
        "nom": "Bayadha",
        "wilaya_id": 39,
        "code_postal": "3904"
    },
    "234": {
        "nom": "Ben Guecha",
        "wilaya_id": 39,
        "code_postal": "3919"
    },
    "488": {
        "nom": "Debila",
        "wilaya_id": 39,
        "code_postal": "3911"
    },
    "533": {
        "nom": "Douar El Maa",
        "wilaya_id": 39,
        "code_postal": "3915"
    },
    "660": {
        "nom": "El Ogla",
        "wilaya_id": 39,
        "code_postal": "3925"
    },
    "664": {
        "nom": "El Oued",
        "wilaya_id": 39,
        "code_postal": "3901"
    },
    "720": {
        "nom": "Guemar",
        "wilaya_id": 39,
        "code_postal": "3906"
    },
    "758": {
        "nom": "Hamraia",
        "wilaya_id": 39,
        "code_postal": "3909"
    },
    "768": {
        "nom": "Hassani Abdelkrim",
        "wilaya_id": 39,
        "code_postal": "3912"
    },
    "782": {
        "nom": "Hassi Khalifa",
        "wilaya_id": 39,
        "code_postal": "3913"
    },
    "860": {
        "nom": "Kouinine",
        "wilaya_id": 39,
        "code_postal": "3907"
    },
    "923": {
        "nom": "Magrane",
        "wilaya_id": 39,
        "code_postal": "3918"
    },
    "990": {
        "nom": "Mih Ouansa",
        "wilaya_id": 39,
        "code_postal": "3926"
    },
    "1021": {
        "nom": "Nakhla",
        "wilaya_id": 39,
        "code_postal": "3905"
    },
    "1047": {
        "nom": "Oued El Alenda",
        "wilaya_id": 39,
        "code_postal": "3903"
    },
    "1160": {
        "nom": "Ourmes",
        "wilaya_id": 39,
        "code_postal": "3920"
    },
    "1187": {
        "nom": "Reguiba",
        "wilaya_id": 39,
        "code_postal": "3908"
    },
    "1192": {
        "nom": "Robbah",
        "wilaya_id": 39,
        "code_postal": "3902"
    },
    "1266": {
        "nom": "Sidi Aoun",
        "wilaya_id": 39,
        "code_postal": "3916"
    },
    "1384": {
        "nom": "Taghzout",
        "wilaya_id": 39,
        "code_postal": "3910"
    },
    "1393": {
        "nom": "Taleb Larbi",
        "wilaya_id": 39,
        "code_postal": "3914"
    },
    "1502": {
        "nom": "Trifaoui",
        "wilaya_id": 39,
        "code_postal": "3917"
    },
    "121": {
        "nom": "Ain Touila",
        "wilaya_id": 40,
        "code_postal": "4006"
    },
    "193": {
        "nom": "Babar",
        "wilaya_id": 40,
        "code_postal": "4013"
    },
    "197": {
        "nom": "Baghai",
        "wilaya_id": 40,
        "code_postal": "4004"
    },
    "387": {
        "nom": "Bouhmama",
        "wilaya_id": 40,
        "code_postal": "4008"
    },
    "446": {
        "nom": "Chelia",
        "wilaya_id": 40,
        "code_postal": "4021"
    },
    "456": {
        "nom": "Cherchar",
        "wilaya_id": 40,
        "code_postal": "4011"
    },
    "517": {
        "nom": "Djellal",
        "wilaya_id": 40,
        "code_postal": "4012"
    },
    "610": {
        "nom": "El Hamma",
        "wilaya_id": 40,
        "code_postal": "4005"
    },
    "639": {
        "nom": "El Mahmal",
        "wilaya_id": 40,
        "code_postal": "4017"
    },
    "665": {
        "nom": "El Oueldja",
        "wilaya_id": 40,
        "code_postal": "4009"
    },
    "676": {
        "nom": "Ensigha",
        "wilaya_id": 40,
        "code_postal": "4015"
    },
    "824": {
        "nom": "Kais",
        "wilaya_id": 40,
        "code_postal": "4003"
    },
    "846": {
        "nom": "Khenchela",
        "wilaya_id": 40,
        "code_postal": "4001"
    },
    "853": {
        "nom": "Khirane",
        "wilaya_id": 40,
        "code_postal": "4020"
    },
    "905": {
        "nom": "M'sara",
        "wilaya_id": 40,
        "code_postal": "4018"
    },
    "908": {
        "nom": "M'toussa",
        "wilaya_id": 40,
        "code_postal": "4002"
    },
    "1131": {
        "nom": "Ouled Rechache",
        "wilaya_id": 40,
        "code_postal": "4016"
    },
    "1190": {
        "nom": "Remila",
        "wilaya_id": 40,
        "code_postal": "4010"
    },
    "1407": {
        "nom": "Tamza",
        "wilaya_id": 40,
        "code_postal": "4014"
    },
    "1416": {
        "nom": "Taouzianat",
        "wilaya_id": 40,
        "code_postal": "4007"
    },
    "1504": {
        "nom": "Yabous",
        "wilaya_id": 40,
        "code_postal": "4019"
    },
    "106": {
        "nom": "Ain Soltane",
        "wilaya_id": 41,
        "code_postal": "4118"
    },
    "128": {
        "nom": "Ain Zana",
        "wilaya_id": 41,
        "code_postal": "4117"
    },
    "307": {
        "nom": "Bir Bouhouche",
        "wilaya_id": 41,
        "code_postal": "4114"
    },
    "544": {
        "nom": "Drea",
        "wilaya_id": 41,
        "code_postal": "4109"
    },
    "734": {
        "nom": "Haddada",
        "wilaya_id": 41,
        "code_postal": "4110"
    },
    "761": {
        "nom": "Hanencha",
        "wilaya_id": 41,
        "code_postal": "4103"
    },
    "837": {
        "nom": "Khedara",
        "wilaya_id": 41,
        "code_postal": "4111"
    },
    "842": {
        "nom": "Khemissa",
        "wilaya_id": 41,
        "code_postal": "4123"
    },
    "902": {
        "nom": "M'daourouche",
        "wilaya_id": 41,
        "code_postal": "4115"
    },
    "918": {
        "nom": "Machroha",
        "wilaya_id": 41,
        "code_postal": "4104"
    },
    "971": {
        "nom": "Merahna",
        "wilaya_id": 41,
        "code_postal": "4112"
    },
    "1062": {
        "nom": "Oued Kebrit",
        "wilaya_id": 41,
        "code_postal": "4124"
    },
    "1108": {
        "nom": "Ouled Driss",
        "wilaya_id": 41,
        "code_postal": "4105"
    },
    "1126": {
        "nom": "Ouled Moumen",
        "wilaya_id": 41,
        "code_postal": "4113"
    },
    "1151": {
        "nom": "Oum El Adhaim",
        "wilaya_id": 41,
        "code_postal": "4116"
    },
    "1164": {
        "nom": "Quillen",
        "wilaya_id": 41,
        "code_postal": "4119"
    },
    "1166": {
        "nom": "Ragouba",
        "wilaya_id": 41,
        "code_postal": "4122"
    },
    "1202": {
        "nom": "Safel El Ouiden",
        "wilaya_id": 41,
        "code_postal": "4121"
    },
    "1221": {
        "nom": "Sedrata",
        "wilaya_id": 41,
        "code_postal": "4102"
    },
    "1287": {
        "nom": "Sidi Fredj",
        "wilaya_id": 41,
        "code_postal": "4120"
    },
    "1349": {
        "nom": "Souk Ahras",
        "wilaya_id": 41,
        "code_postal": "4101"
    },
    "1412": {
        "nom": "Taoura",
        "wilaya_id": 41,
        "code_postal": "4108"
    },
    "1442": {
        "nom": "Terraguelt",
        "wilaya_id": 41,
        "code_postal": "4125"
    },
    "1459": {
        "nom": "Tiffech",
        "wilaya_id": 41,
        "code_postal": "4106"
    },
    "1513": {
        "nom": "Zaarouria",
        "wilaya_id": 41,
        "code_postal": "4107"
    },
    "1540": {
        "nom": "Zouabi",
        "wilaya_id": 41,
        "code_postal": "4126"
    },
    "9": {
        "nom": "Aghbal",
        "wilaya_id": 42,
        "code_postal": "4207"
    },
    "16": {
        "nom": "Ahmer El Ain",
        "wilaya_id": 42,
        "code_postal": "4219"
    },
    "109": {
        "nom": "Ain Tagourait",
        "wilaya_id": 42,
        "code_postal": "4213"
    },
    "181": {
        "nom": "Attatba",
        "wilaya_id": 42,
        "code_postal": "4225"
    },
    "271": {
        "nom": "Beni Mileuk",
        "wilaya_id": 42,
        "code_postal": "4227"
    },
    "350": {
        "nom": "Bou Haroun",
        "wilaya_id": 42,
        "code_postal": "4220"
    },
    "352": {
        "nom": "Bou Ismail",
        "wilaya_id": 42,
        "code_postal": "4218"
    },
    "408": {
        "nom": "Bourkika",
        "wilaya_id": 42,
        "code_postal": "4205"
    },
    "434": {
        "nom": "Chaiba",
        "wilaya_id": 42,
        "code_postal": "4212"
    },
    "457": {
        "nom": "Cherchell",
        "wilaya_id": 42,
        "code_postal": "4214"
    },
    "481": {
        "nom": "Damous",
        "wilaya_id": 42,
        "code_postal": "4215"
    },
    "532": {
        "nom": "Douaouda",
        "wilaya_id": 42,
        "code_postal": "4204"
    },
    "697": {
        "nom": "Fouka",
        "wilaya_id": 42,
        "code_postal": "4217"
    },
    "713": {
        "nom": "Gouraya",
        "wilaya_id": 42,
        "code_postal": "4210"
    },
    "738": {
        "nom": "Hadjout",
        "wilaya_id": 42,
        "code_postal": "4208"
    },
    "739": {
        "nom": "Hadjret Ennous",
        "wilaya_id": 42,
        "code_postal": "4228"
    },
    "844": {
        "nom": "Khemisti",
        "wilaya_id": 42,
        "code_postal": "4206"
    },
    "857": {
        "nom": "Kolea",
        "wilaya_id": 42,
        "code_postal": "4224"
    },
    "885": {
        "nom": "Larhat",
        "wilaya_id": 42,
        "code_postal": "4203"
    },
    "968": {
        "nom": "Menaceur",
        "wilaya_id": 42,
        "code_postal": "4202"
    },
    "970": {
        "nom": "Merad",
        "wilaya_id": 42,
        "code_postal": "4216"
    },
    "981": {
        "nom": "Messelmoun",
        "wilaya_id": 42,
        "code_postal": "4222"
    },
    "1018": {
        "nom": "Nador",
        "wilaya_id": 42,
        "code_postal": "4211"
    },
    "1262": {
        "nom": "Sidi Amar",
        "wilaya_id": 42,
        "code_postal": "4209"
    },
    "1288": {
        "nom": "Sidi Ghiles",
        "wilaya_id": 42,
        "code_postal": "4221"
    },
    "1320": {
        "nom": "Sidi Rached",
        "wilaya_id": 42,
        "code_postal": "4223"
    },
    "1324": {
        "nom": "Sidi Semiane",
        "wilaya_id": 42,
        "code_postal": "4226"
    },
    "1480": {
        "nom": "Tipaza",
        "wilaya_id": 42,
        "code_postal": "4201"
    },
    "15": {
        "nom": "Ahmed Rachedi",
        "wilaya_id": 43,
        "code_postal": "4311"
    },
    "26": {
        "nom": "Ain Beida Harriche",
        "wilaya_id": 43,
        "code_postal": "4330"
    },
    "86": {
        "nom": "Ain Mellouk",
        "wilaya_id": 43,
        "code_postal": "4305"
    },
    "118": {
        "nom": "Ain Tine",
        "wilaya_id": 43,
        "code_postal": "4325"
    },
    "160": {
        "nom": "Amira Arres",
        "wilaya_id": 43,
        "code_postal": "4322"
    },
    "294": {
        "nom": "Benyahia Abderrahmane",
        "wilaya_id": 43,
        "code_postal": "4309"
    },
    "385": {
        "nom": "Bouhatem",
        "wilaya_id": 43,
        "code_postal": "4314"
    },
    "445": {
        "nom": "Chelghoum Laid",
        "wilaya_id": 43,
        "code_postal": "4303"
    },
    "466": {
        "nom": "Chigara",
        "wilaya_id": 43,
        "code_postal": "4332"
    },
    "497": {
        "nom": "Derrahi Bousselah",
        "wilaya_id": 43,
        "code_postal": "4320"
    },
    "648": {
        "nom": "El Mechira",
        "wilaya_id": 43,
        "code_postal": "4326"
    },
    "672": {
        "nom": "Elayadi Barbes",
        "wilaya_id": 43,
        "code_postal": "4329"
    },
    "688": {
        "nom": "Ferdjioua",
        "wilaya_id": 43,
        "code_postal": "4302"
    },
    "714": {
        "nom": "Grarem Gouga",
        "wilaya_id": 43,
        "code_postal": "4317"
    },
    "743": {
        "nom": "Hamala",
        "wilaya_id": 43,
        "code_postal": "4324"
    },
    "992": {
        "nom": "Mila",
        "wilaya_id": 43,
        "code_postal": "4301"
    },
    "994": {
        "nom": "Minar Zarza",
        "wilaya_id": 43,
        "code_postal": "4321"
    },
    "1038": {
        "nom": "Oued Athmenia",
        "wilaya_id": 43,
        "code_postal": "4304"
    },
    "1055": {
        "nom": "Oued Endja",
        "wilaya_id": 43,
        "code_postal": "4310"
    },
    "1072": {
        "nom": "Oued Seguen",
        "wilaya_id": 43,
        "code_postal": "4307"
    },
    "1118": {
        "nom": "Ouled Khalouf",
        "wilaya_id": 43,
        "code_postal": "4312"
    },
    "1196": {
        "nom": "Rouached",
        "wilaya_id": 43,
        "code_postal": "4315"
    },
    "1295": {
        "nom": "Sidi Khelifa",
        "wilaya_id": 43,
        "code_postal": "4327"
    },
    "1312": {
        "nom": "Sidi Merouane",
        "wilaya_id": 43,
        "code_postal": "4318"
    },
    "1373": {
        "nom": "Tadjenanet",
        "wilaya_id": 43,
        "code_postal": "4308"
    },
    "1420": {
        "nom": "Tassadane Haddada",
        "wilaya_id": 43,
        "code_postal": "4319"
    },
    "1431": {
        "nom": "Teleghma",
        "wilaya_id": 43,
        "code_postal": "4306"
    },
    "1443": {
        "nom": "Terrai Bainem",
        "wilaya_id": 43,
        "code_postal": "4323"
    },
    "1446": {
        "nom": "Tessala",
        "wilaya_id": 43,
        "code_postal": "4316"
    },
    "1454": {
        "nom": "Tiberguent",
        "wilaya_id": 43,
        "code_postal": "4313"
    },
    "1505": {
        "nom": "Yahia Beniguecha",
        "wilaya_id": 43,
        "code_postal": "4331"
    },
    "1522": {
        "nom": "Zeghaia",
        "wilaya_id": 43,
        "code_postal": "4328"
    },
    "30": {
        "nom": "Ain Benian",
        "wilaya_id": 44,
        "code_postal": "4426"
    },
    "37": {
        "nom": "Ain Bouyahia",
        "wilaya_id": 44,
        "code_postal": "4433"
    },
    "41": {
        "nom": "Ain Defla",
        "wilaya_id": 44,
        "code_postal": "4401"
    },
    "80": {
        "nom": "Ain Lechiakh",
        "wilaya_id": 44,
        "code_postal": "4414"
    },
    "107": {
        "nom": "Ain Soltane",
        "wilaya_id": 44,
        "code_postal": "4420"
    },
    "120": {
        "nom": "Ain Tork",
        "wilaya_id": 44,
        "code_postal": "4423"
    },
    "175": {
        "nom": "Arib",
        "wilaya_id": 44,
        "code_postal": "4406"
    },
    "202": {
        "nom": "Barbouche",
        "wilaya_id": 44,
        "code_postal": "4428"
    },
    "204": {
        "nom": "Bathia",
        "wilaya_id": 44,
        "code_postal": "4431"
    },
    "217": {
        "nom": "Belaas",
        "wilaya_id": 44,
        "code_postal": "4436"
    },
    "225": {
        "nom": "Ben Allal",
        "wilaya_id": 44,
        "code_postal": "4425"
    },
    "320": {
        "nom": "Bir Ould Khelifa",
        "wilaya_id": 44,
        "code_postal": "4419"
    },
    "339": {
        "nom": "Bordj Emir Khaled",
        "wilaya_id": 44,
        "code_postal": "4422"
    },
    "401": {
        "nom": "Boumedfaa",
        "wilaya_id": 44,
        "code_postal": "4403"
    },
    "406": {
        "nom": "Bourached",
        "wilaya_id": 44,
        "code_postal": "4409"
    },
    "516": {
        "nom": "Djelida",
        "wilaya_id": 44,
        "code_postal": "4407"
    },
    "519": {
        "nom": "Djemaa Ouled Cheikh",
        "wilaya_id": 44,
        "code_postal": "4429"
    },
    "522": {
        "nom": "Djendel",
        "wilaya_id": 44,
        "code_postal": "4412"
    },
    "547": {
        "nom": "El Abadia",
        "wilaya_id": 44,
        "code_postal": "4411"
    },
    "556": {
        "nom": "El Amra",
        "wilaya_id": 44,
        "code_postal": "4408"
    },
    "567": {
        "nom": "El Attaf",
        "wilaya_id": 44,
        "code_postal": "4410"
    },
    "641": {
        "nom": "El Maine",
        "wilaya_id": 44,
        "code_postal": "4434"
    },
    "755": {
        "nom": "Hammam Righa",
        "wilaya_id": 44,
        "code_postal": "4405"
    },
    "769": {
        "nom": "Hassania",
        "wilaya_id": 44,
        "code_postal": "4418"
    },
    "794": {
        "nom": "Hoceinia",
        "wilaya_id": 44,
        "code_postal": "4427"
    },
    "841": {
        "nom": "Khemis Miliana",
        "wilaya_id": 44,
        "code_postal": "4404"
    },
    "961": {
        "nom": "Mekhatria",
        "wilaya_id": 44,
        "code_postal": "4430"
    },
    "993": {
        "nom": "Miliana",
        "wilaya_id": 44,
        "code_postal": "4402"
    },
    "1042": {
        "nom": "Oued Chorfa",
        "wilaya_id": 44,
        "code_postal": "4413"
    },
    "1044": {
        "nom": "Oued Djemaa",
        "wilaya_id": 44,
        "code_postal": "4415"
    },
    "1198": {
        "nom": "Rouina",
        "wilaya_id": 44,
        "code_postal": "4416"
    },
    "1302": {
        "nom": "Sidi Lakhdar",
        "wilaya_id": 44,
        "code_postal": "4424"
    },
    "1369": {
        "nom": "Tacheta Zegagha",
        "wilaya_id": 44,
        "code_postal": "4432"
    },
    "1417": {
        "nom": "Tarik Ibn Ziad",
        "wilaya_id": 44,
        "code_postal": "4421"
    },
    "1455": {
        "nom": "Tiberkanine",
        "wilaya_id": 44,
        "code_postal": "4435"
    },
    "1521": {
        "nom": "Zeddine",
        "wilaya_id": 44,
        "code_postal": "4417"
    },
    "28": {
        "nom": "Ain Ben Khelil",
        "wilaya_id": 45,
        "code_postal": "4509"
    },
    "99": {
        "nom": "Ain Safra",
        "wilaya_id": 45,
        "code_postal": "4503"
    },
    "179": {
        "nom": "Assela",
        "wilaya_id": 45,
        "code_postal": "4507"
    },
    "524": {
        "nom": "Djeniane Bourzeg",
        "wilaya_id": 45,
        "code_postal": "4508"
    },
    "573": {
        "nom": "El Biod",
        "wilaya_id": 45,
        "code_postal": "4512"
    },
    "827": {
        "nom": "Kasdir",
        "wilaya_id": 45,
        "code_postal": "4511"
    },
    "927": {
        "nom": "Makman Ben Amer",
        "wilaya_id": 45,
        "code_postal": "4510"
    },
    "943": {
        "nom": "Mecheria",
        "wilaya_id": 45,
        "code_postal": "4502"
    },
    "999": {
        "nom": "Moghrar",
        "wilaya_id": 45,
        "code_postal": "4506"
    },
    "1016": {
        "nom": "Naama",
        "wilaya_id": 45,
        "code_postal": "4501"
    },
    "1241": {
        "nom": "Sfissifa",
        "wilaya_id": 45,
        "code_postal": "4505"
    },
    "1479": {
        "nom": "Tiout",
        "wilaya_id": 45,
        "code_postal": "4504"
    },
    "11": {
        "nom": "Aghlal",
        "wilaya_id": 46,
        "code_postal": "4607"
    },
    "45": {
        "nom": "Ain El Arbaa",
        "wilaya_id": 46,
        "code_postal": "4609"
    },
    "76": {
        "nom": "Ain Kihal",
        "wilaya_id": 46,
        "code_postal": "4603"
    },
    "114": {
        "nom": "Ain Temouchent",
        "wilaya_id": 46,
        "code_postal": "4601"
    },
    "119": {
        "nom": "Ain Tolba",
        "wilaya_id": 46,
        "code_postal": "4618"
    },
    "170": {
        "nom": "Aoubellil",
        "wilaya_id": 46,
        "code_postal": "4613"
    },
    "279": {
        "nom": "Beni Saf",
        "wilaya_id": 46,
        "code_postal": "4623"
    },
    "420": {
        "nom": "Bouzedjar",
        "wilaya_id": 46,
        "code_postal": "4605"
    },
    "430": {
        "nom": "Chaabat El Ham",
        "wilaya_id": 46,
        "code_postal": "4602"
    },
    "453": {
        "nom": "Chentouf",
        "wilaya_id": 46,
        "code_postal": "4611"
    },
    "557": {
        "nom": "El Amria",
        "wilaya_id": 46,
        "code_postal": "4619"
    },
    "643": {
        "nom": "El Malah",
        "wilaya_id": 46,
        "code_postal": "4614"
    },
    "654": {
        "nom": "El Messaid",
        "wilaya_id": 46,
        "code_postal": "4628"
    },
    "674": {
        "nom": "Emir Abdelkader",
        "wilaya_id": 46,
        "code_postal": "4627"
    },
    "750": {
        "nom": "Hammam Bouhadjar",
        "wilaya_id": 46,
        "code_postal": "4604"
    },
    "770": {
        "nom": "Hassasna",
        "wilaya_id": 46,
        "code_postal": "4621"
    },
    "778": {
        "nom": "Hassi El Ghella",
        "wilaya_id": 46,
        "code_postal": "4620"
    },
    "1039": {
        "nom": "Oued Berkeche",
        "wilaya_id": 46,
        "code_postal": "4606"
    },
    "1070": {
        "nom": "Oued Sebbah",
        "wilaya_id": 46,
        "code_postal": "4616"
    },
    "1098": {
        "nom": "Ouled Boudjemaa",
        "wilaya_id": 46,
        "code_postal": "4617"
    },
    "1120": {
        "nom": "Ouled Kihal",
        "wilaya_id": 46,
        "code_postal": "4622"
    },
    "1147": {
        "nom": "Oulhaca El Gheraba",
        "wilaya_id": 46,
        "code_postal": "4625"
    },
    "1272": {
        "nom": "Sidi Ben Adda",
        "wilaya_id": 46,
        "code_postal": "4612"
    },
    "1275": {
        "nom": "Sidi Boumediene",
        "wilaya_id": 46,
        "code_postal": "4615"
    },
    "1318": {
        "nom": "Sidi Ouriache",
        "wilaya_id": 46,
        "code_postal": "4626"
    },
    "1322": {
        "nom": "Sidi Safi",
        "wilaya_id": 46,
        "code_postal": "4624"
    },
    "1408": {
        "nom": "Tamzoura",
        "wilaya_id": 46,
        "code_postal": "4610"
    },
    "1440": {
        "nom": "Terga",
        "wilaya_id": 46,
        "code_postal": "4608"
    },
    "298": {
        "nom": "Berriane",
        "wilaya_id": 47,
        "code_postal": "4704"
    },
    "405": {
        "nom": "Bounoura",
        "wilaya_id": 47,
        "code_postal": "4710"
    },
    "501": {
        "nom": "Dhayet Bendhahoua",
        "wilaya_id": 47,
        "code_postal": "4703"
    },
    "568": {
        "nom": "El Atteuf",
        "wilaya_id": 47,
        "code_postal": "4707"
    },
    "595": {
        "nom": "El Guerrara",
        "wilaya_id": 47,
        "code_postal": "4706"
    },
    "704": {
        "nom": "Ghardaia",
        "wilaya_id": 47,
        "code_postal": "4701"
    },
    "931": {
        "nom": "Mansoura",
        "wilaya_id": 47,
        "code_postal": "4713"
    },
    "984": {
        "nom": "Metlili",
        "wilaya_id": 47,
        "code_postal": "4705"
    },
    "1216": {
        "nom": "Sebseb",
        "wilaya_id": 47,
        "code_postal": "4709"
    },
    "1525": {
        "nom": "Zelfana",
        "wilaya_id": 47,
        "code_postal": "4708"
    },
    "94": {
        "nom": "Ain Rahma",
        "wilaya_id": 48,
        "code_postal": "4824"
    },
    "111": {
        "nom": "Ain Tarek",
        "wilaya_id": 48,
        "code_postal": "4819"
    },
    "164": {
        "nom": "Ammi Moussa",
        "wilaya_id": 48,
        "code_postal": "4811"
    },
    "218": {
        "nom": "Belaassel Bouzagza",
        "wilaya_id": 48,
        "code_postal": "4803"
    },
    "242": {
        "nom": "Bendaoud",
        "wilaya_id": 48,
        "code_postal": "4835"
    },
    "255": {
        "nom": "Beni Dergoun",
        "wilaya_id": 48,
        "code_postal": "4813"
    },
    "285": {
        "nom": "Beni Zentis",
        "wilaya_id": 48,
        "code_postal": "4830"
    },
    "482": {
        "nom": "Dar Ben Abdelah",
        "wilaya_id": 48,
        "code_postal": "4832"
    },
    "527": {
        "nom": "Djidiouia",
        "wilaya_id": 48,
        "code_postal": "4814"
    },
    "596": {
        "nom": "El Guettar",
        "wilaya_id": 48,
        "code_postal": "4815"
    },
    "597": {
        "nom": "El H'madna",
        "wilaya_id": 48,
        "code_postal": "4807"
    },
    "617": {
        "nom": "El Hassi",
        "wilaya_id": 48,
        "code_postal": "4833"
    },
    "647": {
        "nom": "El Matmar",
        "wilaya_id": 48,
        "code_postal": "4817"
    },
    "668": {
        "nom": "El Ouldja",
        "wilaya_id": 48,
        "code_postal": "4836"
    },
    "732": {
        "nom": "Had Echkalla",
        "wilaya_id": 48,
        "code_postal": "4834"
    },
    "759": {
        "nom": "Hamri",
        "wilaya_id": 48,
        "code_postal": "4816"
    },
    "825": {
        "nom": "Kalaa",
        "wilaya_id": 48,
        "code_postal": "4823"
    },
    "874": {
        "nom": "Lahlef",
        "wilaya_id": 48,
        "code_postal": "4829"
    },
    "942": {
        "nom": "Mazouna",
        "wilaya_id": 48,
        "code_postal": "4822"
    },
    "948": {
        "nom": "Mediouna",
        "wilaya_id": 48,
        "code_postal": "4809"
    },
    "969": {
        "nom": "Mendes",
        "wilaya_id": 48,
        "code_postal": "4828"
    },
    "972": {
        "nom": "Merdja Sidi Abed",
        "wilaya_id": 48,
        "code_postal": "4837"
    },
    "1036": {
        "nom": "Ouarizane",
        "wilaya_id": 48,
        "code_postal": "4821"
    },
    "1052": {
        "nom": "Oued El Djemaa",
        "wilaya_id": 48,
        "code_postal": "4826"
    },
    "1056": {
        "nom": "Oued Essalem",
        "wilaya_id": 48,
        "code_postal": "4820"
    },
    "1068": {
        "nom": "Oued Rhiou",
        "wilaya_id": 48,
        "code_postal": "4802"
    },
    "1088": {
        "nom": "Ouled Aiche",
        "wilaya_id": 48,
        "code_postal": "4805"
    },
    "1140": {
        "nom": "Ouled Sidi Mihoub",
        "wilaya_id": 48,
        "code_postal": "4838"
    },
    "1173": {
        "nom": "Ramka",
        "wilaya_id": 48,
        "code_postal": "4827"
    },
    "1188": {
        "nom": "Relizane",
        "wilaya_id": 48,
        "code_postal": "4801"
    },
    "1297": {
        "nom": "Sidi Khettab",
        "wilaya_id": 48,
        "code_postal": "4810"
    },
    "1304": {
        "nom": "Sidi Lazreg",
        "wilaya_id": 48,
        "code_postal": "4806"
    },
    "1307": {
        "nom": "Sidi M'hamed Benali",
        "wilaya_id": 48,
        "code_postal": "4808"
    },
    "1308": {
        "nom": "Sidi M'hamed Benaouda",
        "wilaya_id": 48,
        "code_postal": "4818"
    },
    "1321": {
        "nom": "Sidi Saada",
        "wilaya_id": 48,
        "code_postal": "4804"
    },
    "1351": {
        "nom": "Souk El Had",
        "wilaya_id": 48,
        "code_postal": "4831"
    },
    "1508": {
        "nom": "Yellel",
        "wilaya_id": 48,
        "code_postal": "4825"
    },
    "1526": {
        "nom": "Zemmoura",
        "wilaya_id": 48,
        "code_postal": "4812"
    },
    "172": {
        "nom": "Aougrout",
        "wilaya_id": 49,
        "code_postal": "4908"
    },
    "437": {
        "nom": "Charouine",
        "wilaya_id": 49,
        "code_postal": "4902"
    },
    "493": {
        "nom": "Deldoul",
        "wilaya_id": 49,
        "code_postal": "4906"
    },
    "868": {
        "nom": "Ksar Kaddour",
        "wilaya_id": 49,
        "code_postal": "4903"
    },
    "983": {
        "nom": "Metarfa",
        "wilaya_id": 49,
        "code_postal": "4907"
    },
    "1090": {
        "nom": "Ouled Aissa",
        "wilaya_id": 49,
        "code_postal": "4910"
    },
    "1134": {
        "nom": "Ouled Said",
        "wilaya_id": 49,
        "code_postal": "4904"
    },
    "1395": {
        "nom": "Talmine",
        "wilaya_id": 49,
        "code_postal": "4909"
    },
    "1472": {
        "nom": "Timimoun",
        "wilaya_id": 49,
        "code_postal": "4901"
    },
    "1478": {
        "nom": "Tinerkouk",
        "wilaya_id": 49,
        "code_postal": "4905"
    },
    "331": {
        "nom": "Bordj Badji Mokhtar",
        "wilaya_id": 50,
        "code_postal": "5001"
    },
    "1471": {
        "nom": "Timiaouine",
        "wilaya_id": 50,
        "code_postal": "5002"
    },
    "303": {
        "nom": "Besbes",
        "wilaya_id": 51,
        "code_postal": "5103"
    },
    "435": {
        "nom": "Chaiba",
        "wilaya_id": 51,
        "code_postal": "5106"
    },
    "534": {
        "nom": "Doucen",
        "wilaya_id": 51,
        "code_postal": "5105"
    },
    "1107": {
        "nom": "Ouled Djellal",
        "wilaya_id": 51,
        "code_postal": "5101"
    },
    "1180": {
        "nom": "Ras El Miad",
        "wilaya_id": 51,
        "code_postal": "5102"
    },
    "1294": {
        "nom": "Sidi Khaled",
        "wilaya_id": 51,
        "code_postal": "5104"
    },
    "244": {
        "nom": "Beni Abbes",
        "wilaya_id": 52,
        "code_postal": "5201"
    },
    "261": {
        "nom": "Beni Ikhlef",
        "wilaya_id": 52,
        "code_postal": "5204"
    },
    "663": {
        "nom": "El Ouata",
        "wilaya_id": 52,
        "code_postal": "5207"
    },
    "809": {
        "nom": "Igli",
        "wilaya_id": 52,
        "code_postal": "5205"
    },
    "833": {
        "nom": "Kerzaz",
        "wilaya_id": 52,
        "code_postal": "5208"
    },
    "862": {
        "nom": "Ksabi",
        "wilaya_id": 52,
        "code_postal": "5209"
    },
    "1119": {
        "nom": "Ouled Khoudir",
        "wilaya_id": 52,
        "code_postal": "5202"
    },
    "1366": {
        "nom": "Tabelbala",
        "wilaya_id": 52,
        "code_postal": "5206"
    },
    "1406": {
        "nom": "Tamtert",
        "wilaya_id": 52,
        "code_postal": "5210"
    },
    "1474": {
        "nom": "Timoudi",
        "wilaya_id": 52,
        "code_postal": "5203"
    },
    "694": {
        "nom": "Foggaret Azzaouia",
        "wilaya_id": 53,
        "code_postal": "5303"
    },
    "815": {
        "nom": "In Ghar",
        "wilaya_id": 53,
        "code_postal": "5302"
    },
    "817": {
        "nom": "In Salah",
        "wilaya_id": 53,
        "code_postal": "5301"
    },
    "816": {
        "nom": "In Guezzam",
        "wilaya_id": 54,
        "code_postal": "5401"
    },
    "1475": {
        "nom": "Tin Zouatine",
        "wilaya_id": 54,
        "code_postal": "5402"
    },
    "239": {
        "nom": "Benaceur",
        "wilaya_id": 55,
        "code_postal": "5510"
    },
    "327": {
        "nom": "Blidet Amor",
        "wilaya_id": 55,
        "code_postal": "5502"
    },
    "554": {
        "nom": "El Alia",
        "wilaya_id": 55,
        "code_postal": "5513"
    },
    "605": {
        "nom": "El Hadjira",
        "wilaya_id": 55,
        "code_postal": "5507"
    },
    "958": {
        "nom": "Megarine",
        "wilaya_id": 55,
        "code_postal": "5512"
    },
    "996": {
        "nom": "Mnaguer",
        "wilaya_id": 55,
        "code_postal": "5511"
    },
    "1027": {
        "nom": "Nezla",
        "wilaya_id": 55,
        "code_postal": "5504"
    },
    "1327": {
        "nom": "Sidi Slimane",
        "wilaya_id": 55,
        "code_postal": "5506"
    },
    "1388": {
        "nom": "Taibet",
        "wilaya_id": 55,
        "code_postal": "5508"
    },
    "1427": {
        "nom": "Tebesbest",
        "wilaya_id": 55,
        "code_postal": "5503"
    },
    "1434": {
        "nom": "Temacine",
        "wilaya_id": 55,
        "code_postal": "5509"
    },
    "1498": {
        "nom": "Touggourt",
        "wilaya_id": 55,
        "code_postal": "5501"
    },
    "1517": {
        "nom": "Zaouia El Abidia",
        "wilaya_id": 55,
        "code_postal": "5505"
    },
    "337": {
        "nom": "Bordj El Haouasse",
        "wilaya_id": 56,
        "code_postal": "5602"
    },
    "506": {
        "nom": "Djanet",
        "wilaya_id": 56,
        "code_postal": "5601"
    },
    "505": {
        "nom": "Djamaa",
        "wilaya_id": 57,
        "code_postal": "5706"
    },
    "634": {
        "nom": "El M'ghair",
        "wilaya_id": 57,
        "code_postal": "5701"
    },
    "1012": {
        "nom": "Mrara",
        "wilaya_id": 57,
        "code_postal": "5703"
    },
    "1157": {
        "nom": "Oum Touyour",
        "wilaya_id": 57,
        "code_postal": "5707"
    },
    "1265": {
        "nom": "Sidi Amrane",
        "wilaya_id": 57,
        "code_postal": "5708"
    },
    "1296": {
        "nom": "Sidi Khelil",
        "wilaya_id": 57,
        "code_postal": "5704"
    },
    "1363": {
        "nom": "Still",
        "wilaya_id": 57,
        "code_postal": "5702"
    },
    "1435": {
        "nom": "Tenedla",
        "wilaya_id": 57,
        "code_postal": "5705"
    },
    "651": {
        "nom": "El Meniaa",
        "wilaya_id": 58,
        "code_postal": "5801"
    },
    "780": {
        "nom": "Hassi Fehal",
        "wilaya_id": 58,
        "code_postal": "5802"
    },
    "781": {
        "nom": "Hassi Gara",
        "wilaya_id": 58,
        "code_postal": "5803"
    }
}